,Number,St,Unit,City,State,Delivery_Rt_ID,ADDRESS,location,point,latitude,longitude,altitude,point_location
0,350,3rd St,#1211,Cambridge,MA,1,"350 3rd St,Cambridge,MA, USA","350, Third Street, East Cambridge, Cambridge, Middlesex County, Massachusetts, 02142, United States of America","(42.363930822916664, -71.0835468125, 0.0)",42.363930822916664,-71.0835468125,0.0,"-71.0835468125,42.363930822916664"
1,164,5th St,#1,Cambridge,MA,1,"164 5th St,Cambridge,MA, USA","162;164, Fifth Street, East Cambridge, Cambridge, Middlesex County, Massachusetts, 02142, United States of America","(42.36820405, -71.08375762804951, 0.0)",42.36820405,-71.08375762804951,0.0,"-71.08375762804951,42.36820405"
2,217,Auburn St,#1,Cambridge,MA,1,"217 Auburn St,Cambridge,MA, USA","217, Auburn Street, Cambridgeport, Cambridge, Middlesex County, Massachusetts, 02139, United States of America","(42.36471025, -71.10675534090909, 0.0)",42.36471025,-71.10675534090909,0.0,"-71.10675534090909,42.36471025"
3,54,Berkshire St,#1,Cambridge,MA,1,"54 Berkshire St,Cambridge,MA, USA","54;56, Berkshire Street, East Cambridge, Cambridge, Middlesex County, Massachusetts, 02238, United States of America","(42.3696425, -71.09104734310242, 0.0)",42.3696425,-71.09104734310242,0.0,"-71.09104734310242,42.3696425"
4,243,Broadway,#610,Cambridge,MA,1,"243 Broadway,Cambridge,MA, USA","243, Broadway, Inman Square, Cambridge, Middlesex County, Massachusetts, 02139, United States of America","(42.367239, -71.09552, 0.0)",42.367239,-71.09552,0.0,"-71.09552,42.367239"
5,243,Broadway,#310,Cambridge,MA,1,"243 Broadway,Cambridge,MA, USA","243, Broadway, Inman Square, Cambridge, Middlesex County, Massachusetts, 02139, United States of America","(42.367239, -71.09552, 0.0)",42.367239,-71.09552,0.0,"-71.09552,42.367239"
6,3,Brookline Place,#401,Cambridge,MA,1,"3 Brookline Place,Cambridge,MA, USA","3, Brookline Place, University Park, Cambridge, Middlesex County, Massachusetts, 02139, United States of America","(42.36209112244898, -71.10224585714286, 0.0)",42.36209112244898,-71.10224585714286,0.0,"-71.10224585714286,42.36209112244898"
7,210,Brookline St,,Cambridge,MA,1,"210 Brookline St,Cambridge,MA, USA","210, Brookline Street, Cambridgeport, Cambridge, Middlesex County, Massachusetts, 02139, United States of America","(42.358782, -71.1063783, 0.0)",42.358782,-71.1063783,0.0,"-71.1063783,42.358782"
8,14,Callender Street,2,Cambridge,MA,1,"14 Callender Street,Cambridge,MA, USA","14, Callender Street, Cambridgeport, Cambridge, Middlesex County, Massachusetts, 02163, United States of America","(42.365195, -71.1114090763786, 0.0)",42.365195,-71.1114090763786,0.0,"-71.1114090763786,42.365195"
9,30,Cambridgepark Drive,3140,Cambridge,MA,1,"30 Cambridgepark Drive,Cambridge,MA, USA","Cambridge Park Apartments, 30, Cambridgepark Drive, Archstone Cambridgepark, Cambridge, Middlesex County, Massachusetts, 02140, United States of America","(42.394012849999996, -71.14278346644616, 0.0)",42.394012849999996,-71.14278346644616,0.0,"-71.14278346644616,42.394012849999996"
10,165,Cambridgepark Drive,#614,Cambridge,MA,2,"165 Cambridgepark Drive,Cambridge,MA, USA","165;181, Cambridgepark Drive, Huron Village, Cambridge, Middlesex County, Massachusetts, 02474-8735, United States of America","(42.3955095, -71.14760921813632, 0.0)",42.3955095,-71.14760921813632,0.0,"-71.14760921813632,42.3955095"
11,30,Cambridgepark Drive,#3129,Cambridge,MA,2,"30 Cambridgepark Drive,Cambridge,MA, USA","Cambridge Park Apartments, 30, Cambridgepark Drive, Archstone Cambridgepark, Cambridge, Middlesex County, Massachusetts, 02140, United States of America","(42.394012849999996, -71.14278346644616, 0.0)",42.394012849999996,-71.14278346644616,0.0,"-71.14278346644616,42.394012849999996"
12,728,Cambridge Street,#3,Cambridge,MA,2,"728 Cambridge Street,Cambridge,MA, USA","728;730, Cambridge Street, East Cambridge, Cambridge, Middlesex County, Massachusetts, 02142, United States of America","(42.372023549999994, -71.0889815094437, 0.0)",42.372023549999994,-71.0889815094437,0.0,"-71.0889815094437,42.372023549999994"
13,1221,Cambridge Street,#806,Cambridge,MA,2,"1221 Cambridge Street,Cambridge,MA, USA","1221, Cambridge Street, East Cambridge, Cambridge, Middlesex County, Massachusetts, 02139, United States of America","(42.37342323076923, -71.09776992307692, 0.0)",42.37342323076923,-71.09776992307692,0.0,"-71.09776992307692,42.37342323076923"
14,1221,Cambridge Street,905,Cambridge,MA,2,"1221 Cambridge Street,Cambridge,MA, USA","1221, Cambridge Street, East Cambridge, Cambridge, Middlesex County, Massachusetts, 02139, United States of America","(42.37342323076923, -71.09776992307692, 0.0)",42.37342323076923,-71.09776992307692,0.0,"-71.09776992307692,42.37342323076923"
15,457,Cambridge Street,#4,Cambridge,MA,2,"457 Cambridge Street,Cambridge,MA, USA","455;457;459;461;463, Cambridge Street, East Cambridge, Cambridge, Middlesex County, Massachusetts, 02142, United States of America","(42.37172275, -71.08383423828201, 0.0)",42.37172275,-71.08383423828201,0.0,"-71.08383423828201,42.37172275"
16,30,Cambridgepark Drive,#3112,Cambridge,MA,2,"30 Cambridgepark Drive,Cambridge,MA, USA","Cambridge Park Apartments, 30, Cambridgepark Drive, Archstone Cambridgepark, Cambridge, Middlesex County, Massachusetts, 02140, United States of America","(42.394012849999996, -71.14278346644616, 0.0)",42.394012849999996,-71.14278346644616,0.0,"-71.14278346644616,42.394012849999996"
17,391,Cardinal Medeiros Avenue,#1,Cambridge,MA,2,"391 Cardinal Medeiros Avenue,Cambridge,MA, USA","391, Cardinal Medeiros Avenue, East Cambridge, Cambridge, Middlesex County, Massachusetts, 02141, United States of America","(42.3709992, -71.08921, 0.0)",42.3709992,-71.08921,0.0,"-71.08921,42.3709992"
18,21,Charles st,,Cambridge,MA,2,"21 Charles st,Cambridge,MA, USA","21, Charles Street, East Cambridge, Cambridge, Middlesex County, Massachusetts, 02141, United States of America","(42.36742553889854, -71.07842994302187, 0.0)",42.36742553889854,-71.07842994302187,0.0,"-71.07842994302187,42.36742553889854"
19,228,Chestnut St,#2,Cambridge,MA,2,"228 Chestnut St,Cambridge,MA, USA","226;228, Chestnut Street, Cambridgeport, Cambridge, Middlesex County, Massachusetts, 02215, United States of America","(42.35877975, -71.11295186255444, 0.0)",42.35877975,-71.11295186255444,0.0,"-71.11295186255444,42.35877975"
20,20,Chestnut st,#108,Cambridge,MA,3,"20 Chestnut st,Cambridge,MA, USA","20, Chestnut Street, Cambridgeport, Cambridge, Middlesex County, Massachusetts, 02215, United States of America","(42.3553955, -71.10728870545084, 0.0)",42.3553955,-71.10728870545084,0.0,"-71.10728870545084,42.3553955"
21,20,Child St,#1112,Cambridge,MA,3,"20 Child St,Cambridge,MA, USA","20, Child Street, East Cambridge, Cambridge, Middlesex County, Massachusetts, 02141, United States of America","(42.3717245625, -71.07238125, 0.0)",42.3717245625,-71.07238125,0.0,"-71.07238125,42.3717245625"
22,20,Child St,#1501,Cambridge,MA,3,"20 Child St,Cambridge,MA, USA","20, Child Street, East Cambridge, Cambridge, Middlesex County, Massachusetts, 02141, United States of America","(42.3717245625, -71.07238125, 0.0)",42.3717245625,-71.07238125,0.0,"-71.07238125,42.3717245625"
23,1,Clifton Place,122,Cambridge,MA,3,"1 Clifton Place,Cambridge,MA, USA","Clifton Place, Jefferson Park, Cambridge, Middlesex County, Massachusetts, 02140, United States of America","(42.3931491, -71.1362245, 0.0)",42.3931491,-71.1362245,0.0,"-71.1362245,42.3931491"
24,6,Clifton Place,#642,Cambridge,MA,3,"6 Clifton Place,Cambridge,MA, USA","6, Clifton Place, Jefferson Park, Cambridge, Middlesex County, Massachusetts, 02140, United States of America","(42.39269075, -71.13596205399865, 0.0)",42.39269075,-71.13596205399865,0.0,"-71.13596205399865,42.39269075"
25,4,Clifton Place,#414,Cambridge,MA,3,"4 Clifton Place,Cambridge,MA, USA","4, Clifton Place, Jefferson Park, Cambridge, Middlesex County, Massachusetts, 02140, United States of America","(42.3930183, -71.13589483297102, 0.0)",42.3930183,-71.13589483297102,0.0,"-71.13589483297102,42.3930183"
26,1,Clifton Place,#121,Cambridge,MA,3,"1 Clifton Place,Cambridge,MA, USA","Clifton Place, Jefferson Park, Cambridge, Middlesex County, Massachusetts, 02140, United States of America","(42.3931491, -71.1362245, 0.0)",42.3931491,-71.1362245,0.0,"-71.1362245,42.3931491"
27,1,Clifton Place,#140,Cambridge,MA,3,"1 Clifton Place,Cambridge,MA, USA","Clifton Place, Jefferson Park, Cambridge, Middlesex County, Massachusetts, 02140, United States of America","(42.3931491, -71.1362245, 0.0)",42.3931491,-71.1362245,0.0,"-71.1362245,42.3931491"
28,3,Clifton Place,#326,Cambridge,MA,3,"3 Clifton Place,Cambridge,MA, USA","Clifton Place, Jefferson Park, Cambridge, Middlesex County, Massachusetts, 02140, United States of America","(42.3931491, -71.1362245, 0.0)",42.3931491,-71.1362245,0.0,"-71.1362245,42.3931491"
29,6,Clifton Place,#635,Cambridge,MA,3,"6 Clifton Place,Cambridge,MA, USA","6, Clifton Place, Jefferson Park, Cambridge, Middlesex County, Massachusetts, 02140, United States of America","(42.39269075, -71.13596205399865, 0.0)",42.39269075,-71.13596205399865,0.0,"-71.13596205399865,42.39269075"
30,173,Columbia St,#1,Cambridge,MA,4,"173 Columbia St,Cambridge,MA, USA","171;173, Columbia Street, Inman Square, Cambridge, Middlesex County, Massachusetts, 02139, United States of America","(42.36752865, -71.09777976628737, 0.0)",42.36752865,-71.09777976628737,0.0,"-71.09777976628737,42.36752865"
31,341,Columbia Street,#2R,Cambridge,MA,4,"341 Columbia Street,Cambridge,MA, USA","341, Columbia Street, Inman Square, Cambridge, Middlesex County, Massachusetts, 02139, United States of America","(42.371346, -71.09556720656678, 0.0)",42.371346,-71.09556720656678,0.0,"-71.09556720656678,42.371346"
32,5,Columbia Ter,#3,Cambridge,MA,4,"5 Columbia Ter,Cambridge,MA, USA","3;5;9, Columbia Terrace, Inman Square, Cambridge, Middlesex County, Massachusetts, 02139, United States of America","(42.3650879, -71.09956785070547, 0.0)",42.3650879,-71.09956785070547,0.0,"-71.09956785070547,42.3650879"
33,5,columbia terrace,3,Cambridge,MA,4,"5 columbia terrace,Cambridge,MA, USA","3;5;9, Columbia Terrace, Inman Square, Cambridge, Middlesex County, Massachusetts, 02139, United States of America","(42.3650879, -71.09956785070547, 0.0)",42.3650879,-71.09956785070547,0.0,"-71.09956785070547,42.3650879"
34,5,Columbia Terrace,#5,Cambridge,MA,4,"5 Columbia Terrace,Cambridge,MA, USA","3;5;9, Columbia Terrace, Inman Square, Cambridge, Middlesex County, Massachusetts, 02139, United States of America","(42.3650879, -71.09956785070547, 0.0)",42.3650879,-71.09956785070547,0.0,"-71.09956785070547,42.3650879"
35,10,Columbia Terrace,#5,Cambridge,MA,4,"10 Columbia Terrace,Cambridge,MA, USA","2;4;6;10, Columbia Terrace, Inman Square, Cambridge, Middlesex County, Massachusetts, 02139, United States of America","(42.3649498, -71.09974735827966, 0.0)",42.3649498,-71.09974735827966,0.0,"-71.09974735827966,42.3649498"
36,310,Concord Ave,,Cambridge,MA,4,"310 Concord Ave,Cambridge,MA, USA","308;310, Concord Avenue, Huron Village, Cambridge, Middlesex County, Massachusetts, 02140, United States of America","(42.3839232, -71.1347619, 0.0)",42.3839232,-71.1347619,0.0,"-71.1347619,42.3839232"
37,6,Corcoran Lane,#5,Cambridge,MA,4,"6 Corcoran Lane,Cambridge,MA, USA","6, Corcoran Lane, Strawberry Hill, Cambridge, Middlesex County, Massachusetts, 02478-3432, United States of America","(42.376863, -71.15321650150526, 0.0)",42.376863,-71.15321650150526,0.0,"-71.15321650150526,42.376863"
38,6,Corcoran Lane,#3,Cambridge,MA,4,"6 Corcoran Lane,Cambridge,MA, USA","6, Corcoran Lane, Strawberry Hill, Cambridge, Middlesex County, Massachusetts, 02478-3432, United States of America","(42.376863, -71.15321650150526, 0.0)",42.376863,-71.15321650150526,0.0,"-71.15321650150526,42.376863"
39,11,Corcoran Lane,#3,Cambridge,MA,4,"11 Corcoran Lane,Cambridge,MA, USA","11, Corcoran Lane, Strawberry Hill, Cambridge, Middlesex County, Massachusetts, 02478-3432, United States of America","(42.376601, -71.15395345, 0.0)",42.376601,-71.15395345,0.0,"-71.15395345,42.376601"
40,19,Corcoran Lane,#3,Cambridge,MA,5,"19 Corcoran Lane,Cambridge,MA, USA","19, Corcoran Lane, Strawberry Hill, Cambridge, Middlesex County, Massachusetts, 02478-3432, United States of America","(42.3772818, -71.15491237424087, 0.0)",42.3772818,-71.15491237424087,0.0,"-71.15491237424087,42.3772818"
41,23,Corcoran Lane,#4,Cambridge,MA,5,"23 Corcoran Lane,Cambridge,MA, USA","23, Corcoran Lane, Strawberry Hill, Cambridge, Middlesex County, Massachusetts, 02478-3432, United States of America","(42.3773454, -71.15449385, 0.0)",42.3773454,-71.15449385,0.0,"-71.15449385,42.3773454"
42,19,Corcoran Lane,#1,Cambridge,MA,5,"19 Corcoran Lane,Cambridge,MA, USA","19, Corcoran Lane, Strawberry Hill, Cambridge, Middlesex County, Massachusetts, 02478-3432, United States of America","(42.3772818, -71.15491237424087, 0.0)",42.3772818,-71.15491237424087,0.0,"-71.15491237424087,42.3772818"
43,5,Cowperthwaite st,#410,Cambridge,MA,5,"5 Cowperthwaite st,Cambridge,MA, USA","5 Cowperthwaite St (Graduate Housing), 5, Cowperthwaite Street, Cambridgeport, Cambridge, Middlesex County, Massachusetts, 02138, United States of America","(42.36903255, -71.11548925232593, 0.0)",42.36903255,-71.11548925232593,0.0,"-71.11548925232593,42.36903255"
44,6,Craigie Circle,#32,Cambridge,MA,5,"6 Craigie Circle,Cambridge,MA, USA","6;8, Craigie Circle, Old Cambridge, Cambridge, Middlesex County, Massachusetts, 02138-2801, United States of America","(42.3791124, -71.12756817393081, 0.0)",42.3791124,-71.12756817393081,0.0,"-71.12756817393081,42.3791124"
45,38,Eighth St,#13,Cambridge,MA,5,"38 Eighth St,Cambridge,MA, USA","38, Eighth Street, East Cambridge, Cambridge, Middlesex County, Massachusetts, 02141, United States of America","(42.37028581818182, -71.08637772727272, 0.0)",42.37028581818182,-71.08637772727272,0.0,"-71.08637772727272,42.37028581818182"
46,218,Elm St.,,Cambridge,MA,5,"218 Elm St.,Cambridge,MA, USA","218;220, Elm Street, Inman Square, Cambridge, Middlesex County, Massachusetts, 02139, United States of America","(42.3719014, -71.09583090783208, 0.0)",42.3719014,-71.09583090783208,0.0,"-71.09583090783208,42.3719014"
47,90,Fawcett Street,#137,Cambridge,MA,5,"90 Fawcett Street,Cambridge,MA, USA","Atmark Cambridge, 90, Fawcett Street, Huron Village, Cambridge, Middlesex County, Massachusetts, 02474-8735, United States of America","(42.392326499999996, -71.14589977751639, 0.0)",42.392326499999996,-71.14589977751639,0.0,"-71.14589977751639,42.392326499999996"
48,22,Flagg Street,#6,Cambridge,MA,5,"22 Flagg Street,Cambridge,MA, USA","22;24, Flagg Street, Cambridgeport, Cambridge, Middlesex County, Massachusetts, 02163, United States of America","(42.367623, -71.11445855, 0.0)",42.367623,-71.11445855,0.0,"-71.11445855,42.367623"
49,129,Franklin Street,#124,Cambridge,MA,5,"129 Franklin Street,Cambridge,MA, USA","Kennedy Biscuit Lofts, 129, Franklin Street, University Park, Cambridge, Middlesex County, Massachusetts, 02139, United States of America","(42.36274985, -71.10118155573551, 0.0)",42.36274985,-71.10118155573551,0.0,"-71.10118155573551,42.36274985"
50,220,Franklin Street,#1,Cambridge,MA,6,"220 Franklin Street,Cambridge,MA, USA","220, Franklin Street, Cambridgeport, Cambridge, Middlesex County, Massachusetts, 02139, United States of America","(42.363738999999995, -71.10419569588689, 0.0)",42.363738999999995,-71.10419569588689,0.0,"-71.10419569588689,42.363738999999995"
51,237,Franklin Street,1307,Cambridge,MA,6,"237 Franklin Street,Cambridge,MA, USA","237, Franklin Street, Cambridgeport, Cambridge, Middlesex County, Massachusetts, 02139, United States of America","(42.363991187609585, -71.10409226244363, 0.0)",42.363991187609585,-71.10409226244363,0.0,"-71.10409226244363,42.363991187609585"
52,345,Franklin Street,#404 A,Cambridge,MA,6,"345 Franklin Street,Cambridge,MA, USA","335;345, Franklin Street, Cambridgeport, Cambridge, Middlesex County, Massachusetts, 02139, United States of America","(42.3661201, -71.10749516105017, 0.0)",42.3661201,-71.10749516105017,0.0,"-71.10749516105017,42.3661201"
53,296,Franklin Street,PLEASE LEAVE ON PORCH,Cambridge,MA,6,"296 Franklin Street,Cambridge,MA, USA","296, Franklin Street, Cambridgeport, Cambridge, Middlesex County, Massachusetts, 02139, United States of America","(42.36474, -71.10563992307692, 0.0)",42.36474,-71.10563992307692,0.0,"-71.10563992307692,42.36474"
54,255,Garden Street,8,Cambridge,MA,6,"255 Garden Street,Cambridge,MA, USA","255, Garden Street, Huron Village, Cambridge, Middlesex County, Massachusetts, 02138, United States of America","(42.38660434188002, -71.13555101977967, 0.0)",42.38660434188002,-71.13555101977967,0.0,"-71.13555101977967,42.38660434188002"
55,239,Garden Street,#3,Cambridge,MA,6,"239 Garden Street,Cambridge,MA, USA","239, Garden Street, Huron Village, Cambridge, Middlesex County, Massachusetts, 02140, United States of America","(42.38680785, -71.13547548683567, 0.0)",42.38680785,-71.13547548683567,0.0,"-71.13547548683567,42.38680785"
56,7,Grant st,#1,Cambridge,MA,6,"7 Grant st,Cambridge,MA, USA","7, Grant Street, Cambridgeport, Cambridge, Middlesex County, Massachusetts, 02138, United States of America","(42.36953862838323, -71.1150867796869, 0.0)",42.36953862838323,-71.1150867796869,0.0,"-71.1150867796869,42.36953862838323"
57,174,Harvard Street,1st floor,Cambridge,MA,6,"174 Harvard Street,Cambridge,MA, USA","174, Harvard Street, Inman Square, Cambridge, Middlesex County, Massachusetts, 02139, United States of America","(42.366341999999996, -71.09634425, 0.0)",42.366341999999996,-71.09634425,0.0,"-71.09634425,42.366341999999996"
58,378,Harvard Street,3,Cambridge,MA,6,"378 Harvard Street,Cambridge,MA, USA","378, Harvard Street, Inman Square, Cambridge, Middlesex County, Massachusetts, 02138, United States of America","(42.37157633333333, -71.11282416666667, 0.0)",42.37157633333333,-71.11282416666667,0.0,"-71.11282416666667,42.37157633333333"
59,120,Harvard Street,#10,Cambridge,MA,6,"120 Harvard Street,Cambridge,MA, USA","120, Harvard Street, Inman Square, Cambridge, Middlesex County, Massachusetts, 02139, United States of America","(42.365140600000004, -71.09400937170734, 0.0)",42.365140600000004,-71.09400937170734,0.0,"-71.09400937170734,42.365140600000004"
60,130,Harvard Street,#11,Cambridge,MA,7,"130 Harvard Street,Cambridge,MA, USA","130, Harvard Street, Inman Square, Cambridge, Middlesex County, Massachusetts, 02139, United States of America","(42.36525905, -71.09426095499727, 0.0)",42.36525905,-71.09426095499727,0.0,"-71.09426095499727,42.36525905"
61,140,Harvard Street`,#2,Cambridge,MA,7,"140 Harvard Street`,Cambridge,MA, USA","140, Harvard Street, Inman Square, Cambridge, Middlesex County, Massachusetts, 02139, United States of America","(42.365416499999995, -71.09464131760973, 0.0)",42.365416499999995,-71.09464131760973,0.0,"-71.09464131760973,42.365416499999995"
62,150,Harvard Street`,#8,Cambridge,MA,7,"150 Harvard Street`,Cambridge,MA, USA","150, Harvard Street, Inman Square, Cambridge, Middlesex County, Massachusetts, 02139, United States of America","(42.36554595, -71.09489860162938, 0.0)",42.36554595,-71.09489860162938,0.0,"-71.09489860162938,42.36554595"
63,140,Harvard Street`,#5,Cambridge,MA,7,"140 Harvard Street`,Cambridge,MA, USA","140, Harvard Street, Inman Square, Cambridge, Middlesex County, Massachusetts, 02139, United States of America","(42.365416499999995, -71.09464131760973, 0.0)",42.365416499999995,-71.09464131760973,0.0,"-71.09464131760973,42.365416499999995"
64,11,howard st,2,Cambridge,MA,7,"11 howard st,Cambridge,MA, USA","11, Howard Street, Cambridgeport, Cambridge, Middlesex County, Massachusetts, 02139, United States of America","(42.36393105, -71.11087277881927, 0.0)",42.36393105,-71.11087277881927,0.0,"-71.11087277881927,42.36393105"
65,232,Hurley St,Apt 2,Cambridge,MA,7,"232 Hurley St,Cambridge,MA, USA","232, Hurley Street, East Cambridge, Cambridge, Middlesex County, Massachusetts, 02141, United States of America","(42.36839125714286, -71.0819066, 0.0)",42.36839125714286,-71.0819066,0.0,"-71.0819066,42.36839125714286"
66,1000,Jackon Pl,#37,Cambridge,MA,7,"1000 Jackon Pl,Cambridge,MA, USA",,,,,,"nan,nan"
67,117,Jackon Pl,,Cambridge,MA,7,"117 Jackon Pl,Cambridge,MA, USA",,,,,,"nan,nan"
68,37,Jackson Place,,Cambridge,MA,7,"37 Jackson Place,Cambridge,MA, USA","21;22;23;24;25;26;27;28;29;30;31;32;33;34;35;36;37;38;39;40;41;42;43;44, Jackson Place, North Cambridge, Cambridge, Middlesex County, Massachusetts, 02140, United States of America","(42.3928021, -71.13479672291473, 0.0)",42.3928021,-71.13479672291473,0.0,"-71.13479672291473,42.3928021"
69,84,Jackson Street,#3,Cambridge,MA,7,"84 Jackson Street,Cambridge,MA, USA","84, Jackson Street, North Cambridge, Cambridge, Middlesex County, Massachusetts, 02140, United States of America","(42.395812500000005, -71.13547740000001, 0.0)",42.395812500000005,-71.13547740000001,0.0,"-71.13547740000001,42.395812500000005"
70,121,Jackson Street,#5,Cambridge,MA,8,"121 Jackson Street,Cambridge,MA, USA","121, Jackson Street, North Cambridge, Cambridge, Middlesex County, Massachusetts, 02140, United States of America","(42.396802853658535, -71.13519397560975, 0.0)",42.396802853658535,-71.13519397560975,0.0,"-71.13519397560975,42.396802853658535"
71,8,Lancaster Street,#8,Cambridge,MA,8,"8 Lancaster Street,Cambridge,MA, USA","6;8;10, Lancaster Street, Porter Square, Cambridge, Middlesex County, Massachusetts, 02140-2215, United States of America","(42.38534935, -71.11997693271935, 0.0)",42.38534935,-71.11997693271935,0.0,"-71.11997693271935,42.38534935"
72,8,Lancaster Street,#22,Cambridge,MA,8,"8 Lancaster Street,Cambridge,MA, USA","6;8;10, Lancaster Street, Porter Square, Cambridge, Middlesex County, Massachusetts, 02140-2215, United States of America","(42.38534935, -71.11997693271935, 0.0)",42.38534935,-71.11997693271935,0.0,"-71.11997693271935,42.38534935"
73,8,Lancaster Street,#6,Cambridge,MA,8,"8 Lancaster Street,Cambridge,MA, USA","6;8;10, Lancaster Street, Porter Square, Cambridge, Middlesex County, Massachusetts, 02140-2215, United States of America","(42.38534935, -71.11997693271935, 0.0)",42.38534935,-71.11997693271935,0.0,"-71.11997693271935,42.38534935"
74,8,Lancaster Street,#15,Cambridge,MA,8,"8 Lancaster Street,Cambridge,MA, USA","6;8;10, Lancaster Street, Porter Square, Cambridge, Middlesex County, Massachusetts, 02140-2215, United States of America","(42.38534935, -71.11997693271935, 0.0)",42.38534935,-71.11997693271935,0.0,"-71.11997693271935,42.38534935"
75,60,Lawn Street,#5,Cambridge,MA,8,"60 Lawn Street,Cambridge,MA, USA","60, Lawn Street, Strawberry Hill, Cambridge, Middlesex County, Massachusetts, 02478-3432, United States of America","(42.377578799999995, -71.15467294812818, 0.0)",42.377578799999995,-71.15467294812818,0.0,"-71.15467294812818,42.377578799999995"
76,53,Lawn Street,#1,Cambridge,MA,8,"53 Lawn Street,Cambridge,MA, USA","53, Lawn Street, Strawberry Hill, Cambridge, Middlesex County, Massachusetts, 02478-3432, United States of America","(42.378310150000004, -71.15449163748207, 0.0)",42.378310150000004,-71.15449163748207,0.0,"-71.15449163748207,42.378310150000004"
77,52,Lawn Street,#2,Cambridge,MA,8,"52 Lawn Street,Cambridge,MA, USA","52, Lawn Street, Strawberry Hill, Cambridge, Middlesex County, Massachusetts, 02478-3432, United States of America","(42.3779894, -71.15425828713862, 0.0)",42.3779894,-71.15425828713862,0.0,"-71.15425828713862,42.3779894"
78,1,Leighton Street,#709,Cambridge,MA,8,"1 Leighton Street,Cambridge,MA, USA","Archstone Northpoint, 1, Leighton Street, East Cambridge, Cambridge, Middlesex County, Massachusetts, 02141, United States of America","(42.36993075, -71.07288299027634, 0.0)",42.36993075,-71.07288299027634,0.0,"-71.07288299027634,42.36993075"
79,1,Leighton Street,1308,Cambridge,MA,8,"1 Leighton Street,Cambridge,MA, USA","Archstone Northpoint, 1, Leighton Street, East Cambridge, Cambridge, Middlesex County, Massachusetts, 02141, United States of America","(42.36993075, -71.07288299027634, 0.0)",42.36993075,-71.07288299027634,0.0,"-71.07288299027634,42.36993075"
80,70,Lincoln St,#70,Cambridge,MA,9,"70 Lincoln St,Cambridge,MA, USA","68;70, Lincoln Street, Inman Square, Cambridge, Middlesex County, Massachusetts, 02139, United States of America","(42.371175550000004, -71.09508151320512, 0.0)",42.371175550000004,-71.09508151320512,0.0,"-71.09508151320512,42.371175550000004"
81,11,Lincoln Way,,Cambridge,MA,9,"11 Lincoln Way,Cambridge,MA, USA","1;2;3;4;5;6;7;8;9;10;11, Lincoln Way, Cambridge, Middlesex County, Massachusetts, 02140, United States of America","(42.387365450000004, -71.12865943529096, 0.0)",42.387365450000004,-71.12865943529096,0.0,"-71.12865943529096,42.387365450000004"
82,33,Lincoln Way,,Cambridge,MA,9,"33 Lincoln Way,Cambridge,MA, USA","19;20;21;22;23;29;31;33;35;37;39;41;42;43;44;45;46, Lincoln Way, Cambridge, Middlesex County, Massachusetts, 02140, United States of America","(42.38798, -71.1287822703184, 0.0)",42.38798,-71.1287822703184,0.0,"-71.1287822703184,42.38798"
83,45,Linnaean Street,#3C,Cambridge,MA,9,"45 Linnaean Street,Cambridge,MA, USA","45, Linnaean Street, Avon Hill, Cambridge, Middlesex County, Massachusetts, 02140-2215, United States of America","(42.383405100000004, -71.124578294022, 0.0)",42.383405100000004,-71.124578294022,0.0,"-71.124578294022,42.383405100000004"
84,45,Linnaean Street,#3D,Cambridge,MA,9,"45 Linnaean Street,Cambridge,MA, USA","45, Linnaean Street, Avon Hill, Cambridge, Middlesex County, Massachusetts, 02140-2215, United States of America","(42.383405100000004, -71.124578294022, 0.0)",42.383405100000004,-71.124578294022,0.0,"-71.124578294022,42.383405100000004"
85,49,Magee st,#4,Cambridge,MA,9,"49 Magee st,Cambridge,MA, USA","47;49, Magee Street, Cambridgeport, Cambridge, Middlesex County, Massachusetts, 02163, United States of America","(42.36614195, -71.11153185, 0.0)",42.36614195,-71.11153185,0.0,"-71.11153185,42.36614195"
86,35,Magee st,,Cambridge,MA,9,"35 Magee st,Cambridge,MA, USA","35, Magee Street, Cambridgeport, Cambridge, Middlesex County, Massachusetts, 02163, United States of America","(42.3663542, -71.11187202128826, 0.0)",42.3663542,-71.11187202128826,0.0,"-71.11187202128826,42.3663542"
87,731,Main Street,,Cambridge,MA,9,"731 Main Street,Cambridge,MA, USA","731, Main Street, Cambridgeport, Cambridge, Middlesex County, Massachusetts, 02139, United States of America","(42.36323315384615, -71.09589792307693, 0.0)",42.36323315384615,-71.09589792307693,0.0,"-71.09589792307693,42.36323315384615"
88,23,Market St,#1,Cambridge,MA,9,"23 Market St,Cambridge,MA, USA","19;21;23;25, Market Street, Inman Square, Cambridge, Middlesex County, Massachusetts, 02238, United States of America","(42.367530599999995, -71.09468186672203, 0.0)",42.367530599999995,-71.09468186672203,0.0,"-71.09468186672203,42.367530599999995"
89,901,Massachusetts Ave,#4,Cambridge,MA,9,"901 Massachusetts Ave,Cambridge,MA, USA","901, Massachusetts Avenue, Cambridgeport, Cambridge, Middlesex County, Massachusetts, 02139, United States of America","(42.3683913, -71.10832894021249, 0.0)",42.3683913,-71.10832894021249,0.0,"-71.10832894021249,42.3683913"
90,1039,Massachusetts Ave,#204,Cambridge,MA,10,"1039 Massachusetts Ave,Cambridge,MA, USA","1039, Massachusetts Avenue, Cambridgeport, Cambridge, Middlesex County, Massachusetts, 02139, United States of America","(42.370022250000005, -71.11238904999999, 0.0)",42.370022250000005,-71.11238904999999,0.0,"-71.11238904999999,42.370022250000005"
91,929,Massachusetts Ave,#5H,Cambridge,MA,10,"929 Massachusetts Ave,Cambridge,MA, USA","929, Massachusetts Avenue, Cambridgeport, Cambridge, Middlesex County, Massachusetts, 02139, United States of America","(42.3690065, -71.10892507244762, 0.0)",42.3690065,-71.10892507244762,0.0,"-71.10892507244762,42.3690065"
92,812,Memorial Dr,609,Cambridge,MA,10,"812 Memorial Dr,Cambridge,MA, USA","812, Memorial Drive, Cambridgeport, Cambridge, Middlesex County, Massachusetts, 02139, United States of America","(42.36107593996611, -71.11581538859437, 0.0)",42.36107593996611,-71.11581538859437,0.0,"-71.11581538859437,42.36107593996611"
93,808,Memorial Drive,#304B,Cambridge,MA,10,"808 Memorial Drive,Cambridge,MA, USA","Citizens Bank, 808, Memorial Drive, Cambridgeport, Cambridge, Middlesex County, Massachusetts, 02163, United States of America","(42.3607866, -71.1154348, 0.0)",42.3607866,-71.1154348,0.0,"-71.1154348,42.3607866"
94,812,Memorial Drive,#607,Cambridge,MA,10,"812 Memorial Drive,Cambridge,MA, USA","812, Memorial Drive, Cambridgeport, Cambridge, Middlesex County, Massachusetts, 02139, United States of America","(42.36107593996611, -71.11581538859437, 0.0)",42.36107593996611,-71.11581538859437,0.0,"-71.11581538859437,42.36107593996611"
95,808,Memorial Drive,#706,Cambridge,MA,10,"808 Memorial Drive,Cambridge,MA, USA","Citizens Bank, 808, Memorial Drive, Cambridgeport, Cambridge, Middlesex County, Massachusetts, 02163, United States of America","(42.3607866, -71.1154348, 0.0)",42.3607866,-71.1154348,0.0,"-71.1154348,42.3607866"
96,808,Memorial Drive,#614,Cambridge,MA,10,"808 Memorial Drive,Cambridge,MA, USA","Citizens Bank, 808, Memorial Drive, Cambridgeport, Cambridge, Middlesex County, Massachusetts, 02163, United States of America","(42.3607866, -71.1154348, 0.0)",42.3607866,-71.1154348,0.0,"-71.1154348,42.3607866"
97,808,Memorial Drive,#805,Cambridge,MA,10,"808 Memorial Drive,Cambridge,MA, USA","Citizens Bank, 808, Memorial Drive, Cambridgeport, Cambridge, Middlesex County, Massachusetts, 02163, United States of America","(42.3607866, -71.1154348, 0.0)",42.3607866,-71.1154348,0.0,"-71.1154348,42.3607866"
98,812,Memorial Drive,#508,Cambridge,MA,10,"812 Memorial Drive,Cambridge,MA, USA","812, Memorial Drive, Cambridgeport, Cambridge, Middlesex County, Massachusetts, 02139, United States of America","(42.36107593996611, -71.11581538859437, 0.0)",42.36107593996611,-71.11581538859437,0.0,"-71.11581538859437,42.36107593996611"
99,808,Memorial Drive,#504,Cambridge,MA,10,"808 Memorial Drive,Cambridge,MA, USA","Citizens Bank, 808, Memorial Drive, Cambridgeport, Cambridge, Middlesex County, Massachusetts, 02163, United States of America","(42.3607866, -71.1154348, 0.0)",42.3607866,-71.1154348,0.0,"-71.1154348,42.3607866"
100,812,Memorial Drive,#1508,Cambridge,MA,11,"812 Memorial Drive,Cambridge,MA, USA","812, Memorial Drive, Cambridgeport, Cambridge, Middlesex County, Massachusetts, 02139, United States of America","(42.36107593996611, -71.11581538859437, 0.0)",42.36107593996611,-71.11581538859437,0.0,"-71.11581538859437,42.36107593996611"
101,812,Memorial Drive,#1304,Cambridge,MA,11,"812 Memorial Drive,Cambridge,MA, USA","812, Memorial Drive, Cambridgeport, Cambridge, Middlesex County, Massachusetts, 02139, United States of America","(42.36107593996611, -71.11581538859437, 0.0)",42.36107593996611,-71.11581538859437,0.0,"-71.11581538859437,42.36107593996611"
102,808,Memorial Drive,#408,Cambridge,MA,11,"808 Memorial Drive,Cambridge,MA, USA","Citizens Bank, 808, Memorial Drive, Cambridgeport, Cambridge, Middlesex County, Massachusetts, 02163, United States of America","(42.3607866, -71.1154348, 0.0)",42.3607866,-71.1154348,0.0,"-71.1154348,42.3607866"
103,812,Memorial Drive,#703,Cambridge,MA,11,"812 Memorial Drive,Cambridge,MA, USA","812, Memorial Drive, Cambridgeport, Cambridge, Middlesex County, Massachusetts, 02139, United States of America","(42.36107593996611, -71.11581538859437, 0.0)",42.36107593996611,-71.11581538859437,0.0,"-71.11581538859437,42.36107593996611"
104,812,Memorial Drive,#1408,Cambridge,MA,11,"812 Memorial Drive,Cambridge,MA, USA","812, Memorial Drive, Cambridgeport, Cambridge, Middlesex County, Massachusetts, 02139, United States of America","(42.36107593996611, -71.11581538859437, 0.0)",42.36107593996611,-71.11581538859437,0.0,"-71.11581538859437,42.36107593996611"
105,812,Memorial drive,#1704,Cambridge,MA,11,"812 Memorial drive,Cambridge,MA, USA","812, Memorial Drive, Cambridgeport, Cambridge, Middlesex County, Massachusetts, 02139, United States of America","(42.36107593996611, -71.11581538859437, 0.0)",42.36107593996611,-71.11581538859437,0.0,"-71.11581538859437,42.36107593996611"
106,808,Memorial Drive,#606,Cambridge,MA,11,"808 Memorial Drive,Cambridge,MA, USA","Citizens Bank, 808, Memorial Drive, Cambridgeport, Cambridge, Middlesex County, Massachusetts, 02163, United States of America","(42.3607866, -71.1154348, 0.0)",42.3607866,-71.1154348,0.0,"-71.1154348,42.3607866"
107,808,Memorial Drive,#107,Cambridge,MA,11,"808 Memorial Drive,Cambridge,MA, USA","Citizens Bank, 808, Memorial Drive, Cambridgeport, Cambridge, Middlesex County, Massachusetts, 02163, United States of America","(42.3607866, -71.1154348, 0.0)",42.3607866,-71.1154348,0.0,"-71.1154348,42.3607866"
108,808,Memorial Drive,#604,Cambridge,MA,11,"808 Memorial Drive,Cambridge,MA, USA","Citizens Bank, 808, Memorial Drive, Cambridgeport, Cambridge, Middlesex County, Massachusetts, 02163, United States of America","(42.3607866, -71.1154348, 0.0)",42.3607866,-71.1154348,0.0,"-71.1154348,42.3607866"
109,812,Memorial Drive,#1108,Cambridge,MA,11,"812 Memorial Drive,Cambridge,MA, USA","812, Memorial Drive, Cambridgeport, Cambridge, Middlesex County, Massachusetts, 02139, United States of America","(42.36107593996611, -71.11581538859437, 0.0)",42.36107593996611,-71.11581538859437,0.0,"-71.11581538859437,42.36107593996611"
110,808,Memorial Drive,#910,Cambridge,MA,12,"808 Memorial Drive,Cambridge,MA, USA","Citizens Bank, 808, Memorial Drive, Cambridgeport, Cambridge, Middlesex County, Massachusetts, 02163, United States of America","(42.3607866, -71.1154348, 0.0)",42.3607866,-71.1154348,0.0,"-71.1154348,42.3607866"
111,10,Museum Way,#725,Cambridge,MA,12,"10 Museum Way,Cambridge,MA, USA","10, Museum Way, East Cambridge, Cambridge, Middlesex County, Massachusetts, 02141, United States of America","(42.36996213043478, -71.07137604347827, 0.0)",42.36996213043478,-71.07137604347827,0.0,"-71.07137604347827,42.36996213043478"
112,10,Museum Way,#925,Cambridge,MA,12,"10 Museum Way,Cambridge,MA, USA","10, Museum Way, East Cambridge, Cambridge, Middlesex County, Massachusetts, 02141, United States of America","(42.36996213043478, -71.07137604347827, 0.0)",42.36996213043478,-71.07137604347827,0.0,"-71.07137604347827,42.36996213043478"
113,29,Newtowne Court,123,Cambridge,MA,12,"29 Newtowne Court,Cambridge,MA, USA","Newtowne Court, Cambridge, Middlesex County, Massachusetts, United States of America","(42.36394155, -71.09496792071232, 0.0)",42.36394155,-71.09496792071232,0.0,"-71.09496792071232,42.36394155"
114,30,Newtowne Court,#271,Cambridge,MA,12,"30 Newtowne Court,Cambridge,MA, USA","Newtowne Court, Cambridge, Middlesex County, Massachusetts, United States of America","(42.36394155, -71.09496792071232, 0.0)",42.36394155,-71.09496792071232,0.0,"-71.09496792071232,42.36394155"
115,29,Newtowne Court,#126,Cambridge,MA,12,"29 Newtowne Court,Cambridge,MA, USA","Newtowne Court, Cambridge, Middlesex County, Massachusetts, United States of America","(42.36394155, -71.09496792071232, 0.0)",42.36394155,-71.09496792071232,0.0,"-71.09496792071232,42.36394155"
116,23,Newtowne Court,#94,Cambridge,MA,12,"23 Newtowne Court,Cambridge,MA, USA","Newtowne Court, Cambridge, Middlesex County, Massachusetts, 02238, United States of America","(42.363766, -71.0948505, 0.0)",42.363766,-71.0948505,0.0,"-71.0948505,42.363766"
117,1,Newtowne Ct,#9,Cambridge,MA,12,"1 Newtowne Ct,Cambridge,MA, USA","1;3;5;7;9, Newtowne Court, Cambridge, Middlesex County, Massachusetts, 02238, United States of America","(42.36357835, -71.09638985888259, 0.0)",42.36357835,-71.09638985888259,0.0,"-71.09638985888259,42.36357835"
118,212,Otis St,,Cambridge,MA,12,"212 Otis St,Cambridge,MA, USA","206;208;210;212;214;216;218;220, Otis Street, East Cambridge, Cambridge, Middlesex County, Massachusetts, 02142, United States of America","(42.37115725, -71.08787201342219, 0.0)",42.37115725,-71.08787201342219,0.0,"-71.08787201342219,42.37115725"
119,117,Pacific Street,,Cambridge,MA,12,"117 Pacific Street,Cambridge,MA, USA","117, Pacific Street, Cambridgeport, Cambridge, Middlesex County, Massachusetts, 02139, United States of America","(42.360718281133686, -71.10290381605128, 0.0)",42.360718281133686,-71.10290381605128,0.0,"-71.10290381605128,42.360718281133686"
120,2,Peabody Terr,#200,Cambridge,MA,13,"2 Peabody Terr,Cambridge,MA, USA","1;2;3;4;5;6;7;8;9, Peabody Terrace, Cambridgeport, Cambridge, Middlesex County, Massachusetts, 02163, United States of America","(42.36680885, -71.11528152536798, 0.0)",42.36680885,-71.11528152536798,0.0,"-71.11528152536798,42.36680885"
121,24,Peabody Terr,#703,Cambridge,MA,13,"24 Peabody Terr,Cambridge,MA, USA","24, Peabody Terrace, Cambridgeport, Cambridge, Middlesex County, Massachusetts, 02138, United States of America","(42.36629247916667, -71.11453154166666, 0.0)",42.36629247916667,-71.11453154166666,0.0,"-71.11453154166666,42.36629247916667"
122,11,Peabody Terr,#1702,Cambridge,MA,13,"11 Peabody Terr,Cambridge,MA, USA","10;11;12;13;14;15;16;17, Peabody Terrace, Cambridgeport, Cambridge, Middlesex County, Massachusetts, 02163, United States of America","(42.3670471, -71.11430511351865, 0.0)",42.3670471,-71.11430511351865,0.0,"-71.11430511351865,42.3670471"
123,11,Peabody Terr,#1002,Cambridge,MA,13,"11 Peabody Terr,Cambridge,MA, USA","10;11;12;13;14;15;16;17, Peabody Terrace, Cambridgeport, Cambridge, Middlesex County, Massachusetts, 02163, United States of America","(42.3670471, -71.11430511351865, 0.0)",42.3670471,-71.11430511351865,0.0,"-71.11430511351865,42.3670471"
124,30,Peabody Terr,#21,Cambridge,MA,13,"30 Peabody Terr,Cambridge,MA, USA","Peabody Terrace, 25;26;27;28;29;30;31;32;33;34, Peabody Terrace, Cambridgeport, Cambridge, Middlesex County, Massachusetts, 02163, United States of America","(42.36626445, -71.11508639867765, 0.0)",42.36626445,-71.11508639867765,0.0,"-71.11508639867765,42.36626445"
125,2,Peabody Terr,#508,Cambridge,MA,13,"2 Peabody Terr,Cambridge,MA, USA","1;2;3;4;5;6;7;8;9, Peabody Terrace, Cambridgeport, Cambridge, Middlesex County, Massachusetts, 02163, United States of America","(42.36680885, -71.11528152536798, 0.0)",42.36680885,-71.11528152536798,0.0,"-71.11528152536798,42.36680885"
126,10,Peabody Terr,#12,Cambridge,MA,13,"10 Peabody Terr,Cambridge,MA, USA","10;11;12;13;14;15;16;17, Peabody Terrace, Cambridgeport, Cambridge, Middlesex County, Massachusetts, 02163, United States of America","(42.3670471, -71.11430511351865, 0.0)",42.3670471,-71.11430511351865,0.0,"-71.11430511351865,42.3670471"
127,11,Peabody Terr,#1004,Cambridge,MA,13,"11 Peabody Terr,Cambridge,MA, USA","10;11;12;13;14;15;16;17, Peabody Terrace, Cambridgeport, Cambridge, Middlesex County, Massachusetts, 02163, United States of America","(42.3670471, -71.11430511351865, 0.0)",42.3670471,-71.11430511351865,0.0,"-71.11430511351865,42.3670471"
128,11,Peabody Terr,#1804,Cambridge,MA,13,"11 Peabody Terr,Cambridge,MA, USA","10;11;12;13;14;15;16;17, Peabody Terrace, Cambridgeport, Cambridge, Middlesex County, Massachusetts, 02163, United States of America","(42.3670471, -71.11430511351865, 0.0)",42.3670471,-71.11430511351865,0.0,"-71.11430511351865,42.3670471"
129,41,Pilgrim St,#102,Cambridge,MA,13,"41 Pilgrim St,Cambridge,MA, USA","41, Pilgrim Street, University Park, Cambridge, Middlesex County, Massachusetts, 02139, United States of America","(42.3615753, -71.10286010423012, 0.0)",42.3615753,-71.10286010423012,0.0,"-71.10286010423012,42.3615753"
130,195,Prospect Street,#20,Cambridge,MA,14,"195 Prospect Street,Cambridge,MA, USA","191;195, Prospect Street, Inman Square, Cambridge, Middlesex County, Massachusetts, 02139, United States of America","(42.3701916, -71.10075532207269, 0.0)",42.3701916,-71.10075532207269,0.0,"-71.10075532207269,42.3701916"
131,306,Prospect Street,#2,Cambridge,MA,14,"306 Prospect Street,Cambridge,MA, USA","304;306, Prospect Street, Inman Square, Cambridge, Middlesex County, Massachusetts, 02139, United States of America","(42.372725349999996, -71.09838900522541, 0.0)",42.372725349999996,-71.09838900522541,0.0,"-71.09838900522541,42.372725349999996"
132,625,Putnam Ave,#406,Cambridge,MA,14,"625 Putnam Ave,Cambridge,MA, USA","625, Putnam Avenue, Cambridgeport, Cambridge, Middlesex County, Massachusetts, 02139, United States of America","(42.3562118, -71.10643430881827, 0.0)",42.3562118,-71.10643430881827,0.0,"-71.10643430881827,42.3562118"
133,625,Putnam Ave,#301,Cambridge,MA,14,"625 Putnam Ave,Cambridge,MA, USA","625, Putnam Avenue, Cambridgeport, Cambridge, Middlesex County, Massachusetts, 02139, United States of America","(42.3562118, -71.10643430881827, 0.0)",42.3562118,-71.10643430881827,0.0,"-71.10643430881827,42.3562118"
134,5,Putnam Ave,#47,Cambridge,MA,14,"5 Putnam Ave,Cambridge,MA, USA","5, Putnam Avenue, Cambridgeport, Cambridge, Middlesex County, Massachusetts, 02139, United States of America","(42.36987905274756, -71.11348505889725, 0.0)",42.36987905274756,-71.11348505889725,0.0,"-71.11348505889725,42.36987905274756"
135,141,Putnam Avenue,1st floor,Cambridge,MA,14,"141 Putnam Avenue,Cambridge,MA, USA","139;141, Putnam Avenue, Cambridgeport, Cambridge, Middlesex County, Massachusetts, 02138-3824, United States of America","(42.3659792, -71.11374302301039, 0.0)",42.3659792,-71.11374302301039,0.0,"-71.11374302301039,42.3659792"
136,13,Putnam Gardens,#119,Cambridge,MA,14,"13 Putnam Gardens,Cambridge,MA, USA","13, Putnam Gardens, Putnam Gardens Apartments, Cambridge, Middlesex County, Massachusetts, 02163, United States of America","(42.3656324, -71.1129274, 0.0)",42.3656324,-71.1129274,0.0,"-71.1129274,42.3656324"
137,10,Putnam Gardens,#94,Cambridge,MA,14,"10 Putnam Gardens,Cambridge,MA, USA","10, Putnam Gardens, Putnam Gardens Apartments, Cambridge, Middlesex County, Massachusetts, 02163, United States of America","(42.3656012, -71.1123288, 0.0)",42.3656012,-71.1123288,0.0,"-71.1123288,42.3656012"
138,5,Putnam Gardens,#50,Cambridge,MA,14,"5 Putnam Gardens,Cambridge,MA, USA","5, Putnam Gardens, Putnam Gardens Apartments, Cambridge, Middlesex County, Massachusetts, 02163, United States of America","(42.3661018, -71.1126051, 0.0)",42.3661018,-71.1126051,0.0,"-71.1126051,42.3661018"
139,2,Putnam Gardens,#19,Cambridge,MA,14,"2 Putnam Gardens,Cambridge,MA, USA","2, Putnam Gardens, Putnam Gardens Apartments, Cambridge, Middlesex County, Massachusetts, 02163, United States of America","(42.3659765, -71.1131781, 0.0)",42.3659765,-71.1131781,0.0,"-71.1131781,42.3659765"
140,6,Putnam Gardens,#56,Cambridge,MA,15,"6 Putnam Gardens,Cambridge,MA, USA","6, Putnam Gardens, Putnam Gardens Apartments, Cambridge, Middlesex County, Massachusetts, 02163, United States of America","(42.3661422, -71.1124206, 0.0)",42.3661422,-71.1124206,0.0,"-71.1124206,42.3661422"
141,1,Putnam Gardens,#2,Cambridge,MA,15,"1 Putnam Gardens,Cambridge,MA, USA","1, Putnam Gardens, Putnam Gardens Apartments, Cambridge, Middlesex County, Massachusetts, 02163, United States of America","(42.3658507, -71.1133335, 0.0)",42.3658507,-71.1133335,0.0,"-71.1133335,42.3658507"
142,2,Putnam Gardens,#13,Cambridge,MA,15,"2 Putnam Gardens,Cambridge,MA, USA","2, Putnam Gardens, Putnam Gardens Apartments, Cambridge, Middlesex County, Massachusetts, 02163, United States of America","(42.3659765, -71.1131781, 0.0)",42.3659765,-71.1131781,0.0,"-71.1131781,42.3659765"
143,1,Putnam Gardens,#8,Cambridge,MA,15,"1 Putnam Gardens,Cambridge,MA, USA","1, Putnam Gardens, Putnam Gardens Apartments, Cambridge, Middlesex County, Massachusetts, 02163, United States of America","(42.3658507, -71.1133335, 0.0)",42.3658507,-71.1133335,0.0,"-71.1133335,42.3658507"
144,10,Putnam Gardens,#88,Cambridge,MA,15,"10 Putnam Gardens,Cambridge,MA, USA","10, Putnam Gardens, Putnam Gardens Apartments, Cambridge, Middlesex County, Massachusetts, 02163, United States of America","(42.3656012, -71.1123288, 0.0)",42.3656012,-71.1123288,0.0,"-71.1123288,42.3656012"
145,3,Putnam Gardens,#31,Cambridge,MA,15,"3 Putnam Gardens,Cambridge,MA, USA","3, Putnam Gardens, Putnam Gardens Apartments, Cambridge, Middlesex County, Massachusetts, 02163, United States of America","(42.3661401, -71.113248, 0.0)",42.3661401,-71.113248,0.0,"-71.113248,42.3661401"
146,11,Putnam Gardens,#98,Cambridge,MA,15,"11 Putnam Gardens,Cambridge,MA, USA","11, Putnam Gardens, Putnam Gardens Apartments, Cambridge, Middlesex County, Massachusetts, 02163, United States of America","(42.365579, -71.1126024, 0.0)",42.365579,-71.1126024,0.0,"-71.1126024,42.365579"
147,6,Putnam Gardens,#54,Cambridge,MA,15,"6 Putnam Gardens,Cambridge,MA, USA","6, Putnam Gardens, Putnam Gardens Apartments, Cambridge, Middlesex County, Massachusetts, 02163, United States of America","(42.3661422, -71.1124206, 0.0)",42.3661422,-71.1124206,0.0,"-71.1124206,42.3661422"
148,3,Putnam Gardens,#22,Cambridge,MA,15,"3 Putnam Gardens,Cambridge,MA, USA","3, Putnam Gardens, Putnam Gardens Apartments, Cambridge, Middlesex County, Massachusetts, 02163, United States of America","(42.3661401, -71.113248, 0.0)",42.3661401,-71.113248,0.0,"-71.113248,42.3661401"
149,362,Rindge,,Cambridge,MA,15,"362 Rindge,Cambridge,MA, USA","362, Rindge Avenue, North Cambridge, Cambridge, Middlesex County, Massachusetts, 02140, United States of America","(42.3925332, -71.13815172576868, 0.0)",42.3925332,-71.13815172576868,0.0,"-71.13815172576868,42.3925332"
150,364,Rindge Ave,16C,Cambridge,MA,16,"364 Rindge Ave,Cambridge,MA, USA","364, Rindge Avenue, North Cambridge, Cambridge, Middlesex County, Massachusetts, 02474-8735, United States of America","(42.39307855, -71.13887697600367, 0.0)",42.39307855,-71.13887697600367,0.0,"-71.13887697600367,42.39307855"
151,364,Rindge Ave,,Cambridge,MA,16,"364 Rindge Ave,Cambridge,MA, USA","364, Rindge Avenue, North Cambridge, Cambridge, Middlesex County, Massachusetts, 02474-8735, United States of America","(42.39307855, -71.13887697600367, 0.0)",42.39307855,-71.13887697600367,0.0,"-71.13887697600367,42.39307855"
152,402,Rindge Ave,6H,Cambridge,MA,16,"402 Rindge Ave,Cambridge,MA, USA","402, Rindge Avenue, North Cambridge, Cambridge, Middlesex County, Massachusetts, 02474-8735, United States of America","(42.393091, -71.13991555000001, 0.0)",42.393091,-71.13991555000001,0.0,"-71.13991555000001,42.393091"
153,216,Rindge ave,3,Cambridge,MA,16,"216 Rindge ave,Cambridge,MA, USA","216, Rindge Avenue, North Cambridge, Cambridge, Middlesex County, Massachusetts, 02140, United States of America","(42.393405117647056, -71.13297352941176, 0.0)",42.393405117647056,-71.13297352941176,0.0,"-71.13297352941176,42.393405117647056"
154,364,Rindge Ave,7F,Cambridge,MA,16,"364 Rindge Ave,Cambridge,MA, USA","364, Rindge Avenue, North Cambridge, Cambridge, Middlesex County, Massachusetts, 02474-8735, United States of America","(42.39307855, -71.13887697600367, 0.0)",42.39307855,-71.13887697600367,0.0,"-71.13887697600367,42.39307855"
155,402,Rindge Ave,#21G,Cambridge,MA,16,"402 Rindge Ave,Cambridge,MA, USA","402, Rindge Avenue, North Cambridge, Cambridge, Middlesex County, Massachusetts, 02474-8735, United States of America","(42.393091, -71.13991555000001, 0.0)",42.393091,-71.13991555000001,0.0,"-71.13991555000001,42.393091"
156,362,Rindge Ave,#5a,Cambridge,MA,16,"362 Rindge Ave,Cambridge,MA, USA","362, Rindge Avenue, North Cambridge, Cambridge, Middlesex County, Massachusetts, 02140, United States of America","(42.3925332, -71.13815172576868, 0.0)",42.3925332,-71.13815172576868,0.0,"-71.13815172576868,42.3925332"
157,362,Rindge Ave,#10J,Cambridge,MA,16,"362 Rindge Ave,Cambridge,MA, USA","362, Rindge Avenue, North Cambridge, Cambridge, Middlesex County, Massachusetts, 02140, United States of America","(42.3925332, -71.13815172576868, 0.0)",42.3925332,-71.13815172576868,0.0,"-71.13815172576868,42.3925332"
158,402,Rindge Ave.,9-C,Cambridge,MA,16,"402 Rindge Ave.,Cambridge,MA, USA","402, Rindge Avenue, North Cambridge, Cambridge, Middlesex County, Massachusetts, 02474-8735, United States of America","(42.393091, -71.13991555000001, 0.0)",42.393091,-71.13991555000001,0.0,"-71.13991555000001,42.393091"
159,362,Rindge Ave.,,Cambridge,MA,16,"362 Rindge Ave.,Cambridge,MA, USA","362, Rindge Avenue, North Cambridge, Cambridge, Middlesex County, Massachusetts, 02140, United States of America","(42.3925332, -71.13815172576868, 0.0)",42.3925332,-71.13815172576868,0.0,"-71.13815172576868,42.3925332"
160,362,Rindge Ave.,6G,Cambridge,MA,17,"362 Rindge Ave.,Cambridge,MA, USA","362, Rindge Avenue, North Cambridge, Cambridge, Middlesex County, Massachusetts, 02140, United States of America","(42.3925332, -71.13815172576868, 0.0)",42.3925332,-71.13815172576868,0.0,"-71.13815172576868,42.3925332"
161,362,Rindge Avenue,Apt 19D,Cambridge,MA,17,"362 Rindge Avenue,Cambridge,MA, USA","362, Rindge Avenue, North Cambridge, Cambridge, Middlesex County, Massachusetts, 02140, United States of America","(42.3925332, -71.13815172576868, 0.0)",42.3925332,-71.13815172576868,0.0,"-71.13815172576868,42.3925332"
162,362,Rindge Avenue,21H,Cambridge,MA,17,"362 Rindge Avenue,Cambridge,MA, USA","362, Rindge Avenue, North Cambridge, Cambridge, Middlesex County, Massachusetts, 02140, United States of America","(42.3925332, -71.13815172576868, 0.0)",42.3925332,-71.13815172576868,0.0,"-71.13815172576868,42.3925332"
163,344,Rindge Avenue,#1,Cambridge,MA,17,"344 Rindge Avenue,Cambridge,MA, USA","344, Rindge Avenue, North Cambridge, Cambridge, Middlesex County, Massachusetts, 02140, United States of America","(42.393684449999995, -71.13776952594696, 0.0)",42.393684449999995,-71.13776952594696,0.0,"-71.13776952594696,42.393684449999995"
164,362,Rindge Avenue,#22G,Cambridge,MA,17,"362 Rindge Avenue,Cambridge,MA, USA","362, Rindge Avenue, North Cambridge, Cambridge, Middlesex County, Massachusetts, 02140, United States of America","(42.3925332, -71.13815172576868, 0.0)",42.3925332,-71.13815172576868,0.0,"-71.13815172576868,42.3925332"
165,362,Rindge Avenue,#11M,Cambridge,MA,17,"362 Rindge Avenue,Cambridge,MA, USA","362, Rindge Avenue, North Cambridge, Cambridge, Middlesex County, Massachusetts, 02140, United States of America","(42.3925332, -71.13815172576868, 0.0)",42.3925332,-71.13815172576868,0.0,"-71.13815172576868,42.3925332"
166,14,Roosevelt Towers,#304E,Cambridge,MA,17,"14 Roosevelt Towers,Cambridge,MA, USA","Roosevelt Towers, Cambridge, Middlesex County, Massachusetts, United States of America","(42.373664500000004, -71.09226424422903, 0.0)",42.373664500000004,-71.09226424422903,0.0,"-71.09226424422903,42.373664500000004"
167,157,Sixth St,606,Cambridge,MA,17,"157 Sixth St,Cambridge,MA, USA","157, Sixth Street, East Cambridge, Cambridge, Middlesex County, Massachusetts, 02142, United States of America","(42.3666397, -71.0860859, 0.0)",42.3666397,-71.0860859,0.0,"-71.0860859,42.3666397"
168,141,Spring St.,#2L,Cambridge,MA,17,"141 Spring St.,Cambridge,MA, USA","141, Spring Street, East Cambridge, Cambridge, Middlesex County, Massachusetts, 02142, United States of America","(42.369695199999995, -71.0848891120705, 0.0)",42.369695199999995,-71.0848891120705,0.0,"-71.0848891120705,42.369695199999995"
169,140,Spring St.,#C,Cambridge,MA,17,"140 Spring St.,Cambridge,MA, USA","140, Spring Street, East Cambridge, Cambridge, Middlesex County, Massachusetts, 02142, United States of America","(42.3693353, -71.08465366084837, 0.0)",42.3693353,-71.08465366084837,0.0,"-71.08465366084837,42.3693353"
170,20,St. Sauveur Ct,#8,Cambridge,MA,18,"20 St. Sauveur Ct,Cambridge,MA, USA","20, Saint Sauveur Court, Strawberry Hill, Cambridge, Middlesex County, Massachusetts, 02478-3432, United States of America","(42.376859350000004, -71.15254138845313, 0.0)",42.376859350000004,-71.15254138845313,0.0,"-71.15254138845313,42.376859350000004"
171,40,St. Sauveur Ct,#4,Cambridge,MA,18,"40 St. Sauveur Ct,Cambridge,MA, USA","40, Saint Sauveur Court, Strawberry Hill, Cambridge, Middlesex County, Massachusetts, 02478-3432, United States of America","(42.3770795, -71.15367477908518, 0.0)",42.3770795,-71.15367477908518,0.0,"-71.15367477908518,42.3770795"
172,5,Temple Street,#105,Cambridge,MA,18,"5 Temple Street,Cambridge,MA, USA","5, Temple Street, Cambridgeport, Cambridge, Middlesex County, Massachusetts, 02139, United States of America","(42.36615793537862, -71.1046406447828, 0.0)",42.36615793537862,-71.1046406447828,0.0,"-71.1046406447828,42.36615793537862"
173,5,Temple Street,#404,Cambridge,MA,18,"5 Temple Street,Cambridge,MA, USA","5, Temple Street, Cambridgeport, Cambridge, Middlesex County, Massachusetts, 02139, United States of America","(42.36615793537862, -71.1046406447828, 0.0)",42.36615793537862,-71.1046406447828,0.0,"-71.1046406447828,42.36615793537862"
174,7,Temple Street,#301,Cambridge,MA,18,"7 Temple Street,Cambridge,MA, USA","YWCA, 7, Temple Street, Cambridgeport, Cambridge, Middlesex County, Massachusetts, 02139, United States of America","(42.3668113, -71.10430903799411, 0.0)",42.3668113,-71.10430903799411,0.0,"-71.10430903799411,42.3668113"
175,5,Temple Street,#208,Cambridge,MA,18,"5 Temple Street,Cambridge,MA, USA","5, Temple Street, Cambridgeport, Cambridge, Middlesex County, Massachusetts, 02139, United States of America","(42.36615793537862, -71.1046406447828, 0.0)",42.36615793537862,-71.1046406447828,0.0,"-71.1046406447828,42.36615793537862"
176,67,Thingvalla Ave,5,Cambridge,MA,18,"67 Thingvalla Ave,Cambridge,MA, USA","67, Thingvalla Avenue, Waverley, Belmont, Middlesex County, Massachusetts, 02478-3432, United States of America","(42.3764451, -71.15467303183075, 0.0)",42.3764451,-71.15467303183075,0.0,"-71.15467303183075,42.3764451"
177,55,Thingvalla ave,#3,Cambridge,MA,18,"55 Thingvalla ave,Cambridge,MA, USA","55, Thingvalla Avenue, Strawberry Hill, Cambridge, Middlesex County, Massachusetts, 02478-3432, United States of America","(42.37628895, -71.15395783662868, 0.0)",42.37628895,-71.15395783662868,0.0,"-71.15395783662868,42.37628895"
178,63,Thingvalla Avenue,#5,Cambridge,MA,18,"63 Thingvalla Avenue,Cambridge,MA, USA","63, Thingvalla Avenue, Waverley, Belmont, Middlesex County, Massachusetts, 02478-3432, United States of America","(42.3767192, -71.15454006765958, 0.0)",42.3767192,-71.15454006765958,0.0,"-71.15454006765958,42.3767192"
179,63,Thingvalla Avenue,#2,Cambridge,MA,18,"63 Thingvalla Avenue,Cambridge,MA, USA","63, Thingvalla Avenue, Waverley, Belmont, Middlesex County, Massachusetts, 02478-3432, United States of America","(42.3767192, -71.15454006765958, 0.0)",42.3767192,-71.15454006765958,0.0,"-71.15454006765958,42.3767192"
180,285,Third Street,#604,Cambridge,MA,19,"285 Third Street,Cambridge,MA, USA","Eastern Bank, 285, Third Street, East Cambridge, Cambridge, Middlesex County, Massachusetts, 02142, United States of America","(42.3647694, -71.0831074, 0.0)",42.3647694,-71.0831074,0.0,"-71.0831074,42.3647694"
181,96,Thorndike street,#A,Cambridge,MA,19,"96 Thorndike street,Cambridge,MA, USA","96, Thorndike Street, East Cambridge, Cambridge, Middlesex County, Massachusetts, 02141, United States of America","(42.36986455555555, -71.08250827777778, 0.0)",42.36986455555555,-71.08250827777778,0.0,"-71.08250827777778,42.36986455555555"
182,126,Thorndike street,#2,Cambridge,MA,19,"126 Thorndike street,Cambridge,MA, USA","126 1/2, Thorndike Street, East Cambridge, Cambridge, Middlesex County, Massachusetts, 02142, United States of America","(42.369851600000004, -71.08395169836848, 0.0)",42.369851600000004,-71.08395169836848,0.0,"-71.08395169836848,42.369851600000004"
183,142,Thorndike street,#2,Cambridge,MA,19,"142 Thorndike street,Cambridge,MA, USA","142 1/2, Thorndike Street, East Cambridge, Cambridge, Middlesex County, Massachusetts, 02142, United States of America","(42.3699196, -71.08474093263547, 0.0)",42.3699196,-71.08474093263547,0.0,"-71.08474093263547,42.3699196"
184,4,University rd,412,Cambridge,MA,19,"4 University rd,Cambridge,MA, USA","Chapman Arms, 4, University Road, Old Cambridge, Cambridge, Middlesex County, Massachusetts, 02138, United States of America","(42.3729954, -71.12291491342953, 0.0)",42.3729954,-71.12291491342953,0.0,"-71.12291491342953,42.3729954"
185,11,Walden Sq Road,#310,Cambridge,MA,19,"11 Walden Sq Road,Cambridge,MA, USA","10;11, Walden Square Road, Avon Hill, Cambridge, Middlesex County, Massachusetts, 02140, United States of America","(42.3892522, -71.13101997361125, 0.0)",42.3892522,-71.13101997361125,0.0,"-71.13101997361125,42.3892522"
186,10,Walden Sq Road,#306,Cambridge,MA,19,"10 Walden Sq Road,Cambridge,MA, USA","10;11, Walden Square Road, Avon Hill, Cambridge, Middlesex County, Massachusetts, 02140, United States of America","(42.3892522, -71.13101997361125, 0.0)",42.3892522,-71.13101997361125,0.0,"-71.13101997361125,42.3892522"
187,5,Walden Sq Road,#127,Cambridge,MA,19,"5 Walden Sq Road,Cambridge,MA, USA","5, Walden Square Road, Avon Hill, Cambridge, Middlesex County, Massachusetts, 02140, United States of America","(42.38932838907864, -71.12903898473775, 0.0)",42.38932838907864,-71.12903898473775,0.0,"-71.12903898473775,42.38932838907864"
188,170,Ware Street,506,Cambridge,MA,19,"170 Ware Street,Cambridge,MA, USA","Ware Street, Inman Square, Cambridge, Middlesex County, Massachusetts, 02138-3824, United States of America","(42.372823, -71.112949, 0.0)",42.372823,-71.112949,0.0,"-71.112949,42.372823"
189,18,Ware Street,#23,Cambridge,MA,19,"18 Ware Street,Cambridge,MA, USA","18;20, Ware Street, Inman Square, Cambridge, Middlesex County, Massachusetts, 02138-3824, United States of America","(42.37347325, -71.11221237459287, 0.0)",42.37347325,-71.11221237459287,0.0,"-71.11221237459287,42.37347325"
190,18,Ware Street,#20,Cambridge,MA,20,"18 Ware Street,Cambridge,MA, USA","18;20, Ware Street, Inman Square, Cambridge, Middlesex County, Massachusetts, 02138-3824, United States of America","(42.37347325, -71.11221237459287, 0.0)",42.37347325,-71.11221237459287,0.0,"-71.11221237459287,42.37347325"
191,151,Washington Street,#7,Cambridge,MA,20,"151 Washington Street,Cambridge,MA, USA","151, Washington Street, Inman Square, Cambridge, Middlesex County, Massachusetts, 02238, United States of America","(42.36495145, -71.09527796078285, 0.0)",42.36495145,-71.09527796078285,0.0,"-71.09527796078285,42.36495145"
192,22,Water St,#1413,Cambridge,MA,20,"22 Water St,Cambridge,MA, USA","22, Water Street, East Cambridge, Cambridge, Middlesex County, Massachusetts, 02141, United States of America","(42.37217820612943, -71.0783853137491, 0.0)",42.37217820612943,-71.0783853137491,0.0,"-71.0783853137491,42.37217820612943"
193,25,Wendell St,#1,Cambridge,MA,20,"25 Wendell St,Cambridge,MA, USA","25, Wendell Street, Avon Hill, Cambridge, Middlesex County, Massachusetts, 02138-2706, United States of America","(42.3817979, -71.1175296141231, 0.0)",42.3817979,-71.1175296141231,0.0,"-71.1175296141231,42.3817979"
194,217,Western Ave,B,Cambridge,MA,20,"217 Western Ave,Cambridge,MA, USA","217;219;221;223, Western Avenue, Cambridgeport, Cambridge, Middlesex County, Massachusetts, 02139, United States of America","(42.364917750000004, -71.1109726970744, 0.0)",42.364917750000004,-71.1109726970744,0.0,"-71.1109726970744,42.364917750000004"
195,220,Western Ave,#1,Cambridge,MA,20,"220 Western Ave,Cambridge,MA, USA","218;220;222, Western Avenue, Cambridgeport, Cambridge, Middlesex County, Massachusetts, 02139, United States of America","(42.36455075000001, -71.11092272408841, 0.0)",42.36455075000001,-71.11092272408841,0.0,"-71.11092272408841,42.36455075000001"
196,54,Willow St,,Cambridge,MA,20,"54 Willow St,Cambridge,MA, USA","50;52;54, Willow Street, Inman Square, Cambridge, Middlesex County, Massachusetts, 02238, United States of America","(42.37117455, -71.0931084607974, 0.0)",42.37117455,-71.0931084607974,0.0,"-71.0931084607974,42.37117455"
197,500,Windsor Street,,Cambridge,MA,20,"500 Windsor Street,Cambridge,MA, USA","500, Windsor Street, Union Square, Somerville, Middlesex County, Massachusetts, 02141, United States of America","(42.37285, -71.093126, 0.0)",42.37285,-71.093126,0.0,"-71.093126,42.37285"
198,8,Wilson Ave,#55,Cambridge,MA,20,"8 Wilson Ave,Cambridge,MA, USA","8, Wilson Avenue, North Cambridge, Cambridge, Middlesex County, Massachusetts, 02140, United States of America","(42.39264049441325, -71.13036466261748, 0.0)",42.39264049441325,-71.13036466261748,0.0,"-71.13036466261748,42.39264049441325"
199,8,Woodrow Wilson Court,#53,Cambridge,MA,20,"8 Woodrow Wilson Court,Cambridge,MA, USA","8, Woodrow Wilson Court, Cambridge, Middlesex County, Massachusetts, 02139, United States of America","(42.3610529, -71.1096129, 0.0)",42.3610529,-71.1096129,0.0,"-71.1096129,42.3610529"
200,1,Woodrow Wilson Court,#3,Cambridge,MA,21,"1 Woodrow Wilson Court,Cambridge,MA, USA","1, Woodrow Wilson Court, Cambridge, Middlesex County, Massachusetts, 02139, United States of America","(42.3612151, -71.1089236, 0.0)",42.3612151,-71.1089236,0.0,"-71.1089236,42.3612151"
201,5,Woodrow Wilson Court,#32,Cambridge,MA,21,"5 Woodrow Wilson Court,Cambridge,MA, USA","5, Woodrow Wilson Court, Cambridge, Middlesex County, Massachusetts, 02139, United States of America","(42.3613609, -71.10983, 0.0)",42.3613609,-71.10983,0.0,"-71.10983,42.3613609"
202,3,Woodrow Wilson Court,#19,Cambridge,MA,21,"3 Woodrow Wilson Court,Cambridge,MA, USA","3, Woodrow Wilson Court, Cambridge, Middlesex County, Massachusetts, 02139, United States of America","(42.3614486, -71.109179, 0.0)",42.3614486,-71.109179,0.0,"-71.109179,42.3614486"
203,7,Woodrow Wilson Court,#41,Cambridge,MA,21,"7 Woodrow Wilson Court,Cambridge,MA, USA","7, Woodrow Wilson Court, Cambridge, Middlesex County, Massachusetts, 02139, United States of America","(42.3611537, -71.1097802, 0.0)",42.3611537,-71.1097802,0.0,"-71.1097802,42.3611537"
204,43,Allston Street,32,Cambridge,MA,21,"43 Allston Street,Cambridge,MA, USA","43, Allston Street, Cambridgeport, Cambridge, Middlesex County, Massachusetts, 02139, United States of America","(42.3573269, -71.10560748981939, 0.0)",42.3573269,-71.10560748981939,0.0,"-71.10560748981939,42.3573269"
205,1221,Cambridge St,605,Cambridge,MA,21,"1221 Cambridge St,Cambridge,MA, USA","1221, Cambridge Street, East Cambridge, Cambridge, Middlesex County, Massachusetts, 02139, United States of America","(42.37342323076923, -71.09776992307692, 0.0)",42.37342323076923,-71.09776992307692,0.0,"-71.09776992307692,42.37342323076923"
206,1221,Cambridge St,#904,Cambridge,MA,21,"1221 Cambridge St,Cambridge,MA, USA","1221, Cambridge Street, East Cambridge, Cambridge, Middlesex County, Massachusetts, 02139, United States of America","(42.37342323076923, -71.09776992307692, 0.0)",42.37342323076923,-71.09776992307692,0.0,"-71.09776992307692,42.37342323076923"
207,1221,Cambridge St,602,Cambridge,MA,21,"1221 Cambridge St,Cambridge,MA, USA","1221, Cambridge Street, East Cambridge, Cambridge, Middlesex County, Massachusetts, 02139, United States of America","(42.37342323076923, -71.09776992307692, 0.0)",42.37342323076923,-71.09776992307692,0.0,"-71.09776992307692,42.37342323076923"
208,1221,Cambridge St,810,Cambridge,MA,21,"1221 Cambridge St,Cambridge,MA, USA","1221, Cambridge Street, East Cambridge, Cambridge, Middlesex County, Massachusetts, 02139, United States of America","(42.37342323076923, -71.09776992307692, 0.0)",42.37342323076923,-71.09776992307692,0.0,"-71.09776992307692,42.37342323076923"
209,1221,Cambridge St,1005,Cambridge,MA,21,"1221 Cambridge St,Cambridge,MA, USA","1221, Cambridge Street, East Cambridge, Cambridge, Middlesex County, Massachusetts, 02139, United States of America","(42.37342323076923, -71.09776992307692, 0.0)",42.37342323076923,-71.09776992307692,0.0,"-71.09776992307692,42.37342323076923"
210,803,Cambridge st,3,Cambridge,MA,22,"803 Cambridge st,Cambridge,MA, USA","803, Cambridge Street, East Cambridge, Cambridge, Middlesex County, Massachusetts, 02142, United States of America","(42.372523, -71.09033435915791, 0.0)",42.372523,-71.09033435915791,0.0,"-71.09033435915791,42.372523"
211,30,Churchill Avenue,#303,Cambridge,MA,22,"30 Churchill Avenue,Cambridge,MA, USA","30, Churchill Avenue, North Cambridge, Cambridge, Middlesex County, Massachusetts, 02140, United States of America","(42.4002105, -71.13220153485291, 0.0)",42.4002105,-71.13220153485291,0.0,"-71.13220153485291,42.4002105"
212,30,Churchill Avenue,#605,Cambridge,MA,22,"30 Churchill Avenue,Cambridge,MA, USA","30, Churchill Avenue, North Cambridge, Cambridge, Middlesex County, Massachusetts, 02140, United States of America","(42.4002105, -71.13220153485291, 0.0)",42.4002105,-71.13220153485291,0.0,"-71.13220153485291,42.4002105"
213,30,Churchill Avenue,#410,Cambridge,MA,22,"30 Churchill Avenue,Cambridge,MA, USA","30, Churchill Avenue, North Cambridge, Cambridge, Middlesex County, Massachusetts, 02140, United States of America","(42.4002105, -71.13220153485291, 0.0)",42.4002105,-71.13220153485291,0.0,"-71.13220153485291,42.4002105"
214,50,Churchill Avenue,#50,Cambridge,MA,22,"50 Churchill Avenue,Cambridge,MA, USA","50, Churchill Avenue, North Cambridge, Cambridge, Middlesex County, Massachusetts, 02140, United States of America","(42.400573550000004, -71.13163973637504, 0.0)",42.400573550000004,-71.13163973637504,0.0,"-71.13163973637504,42.400573550000004"
215,30,Churchill Avenue,#609,Cambridge,MA,22,"30 Churchill Avenue,Cambridge,MA, USA","30, Churchill Avenue, North Cambridge, Cambridge, Middlesex County, Massachusetts, 02140, United States of America","(42.4002105, -71.13220153485291, 0.0)",42.4002105,-71.13220153485291,0.0,"-71.13220153485291,42.4002105"
216,30,Churchill Avenue,#306,Cambridge,MA,22,"30 Churchill Avenue,Cambridge,MA, USA","30, Churchill Avenue, North Cambridge, Cambridge, Middlesex County, Massachusetts, 02140, United States of America","(42.4002105, -71.13220153485291, 0.0)",42.4002105,-71.13220153485291,0.0,"-71.13220153485291,42.4002105"
217,30,Churchill Avenue,#411,Cambridge,MA,22,"30 Churchill Avenue,Cambridge,MA, USA","30, Churchill Avenue, North Cambridge, Cambridge, Middlesex County, Massachusetts, 02140, United States of America","(42.4002105, -71.13220153485291, 0.0)",42.4002105,-71.13220153485291,0.0,"-71.13220153485291,42.4002105"
218,30,Churchill Avenue,#201,Cambridge,MA,22,"30 Churchill Avenue,Cambridge,MA, USA","30, Churchill Avenue, North Cambridge, Cambridge, Middlesex County, Massachusetts, 02140, United States of America","(42.4002105, -71.13220153485291, 0.0)",42.4002105,-71.13220153485291,0.0,"-71.13220153485291,42.4002105"
219,30,Churchill Avenue,#602,Cambridge,MA,22,"30 Churchill Avenue,Cambridge,MA, USA","30, Churchill Avenue, North Cambridge, Cambridge, Middlesex County, Massachusetts, 02140, United States of America","(42.4002105, -71.13220153485291, 0.0)",42.4002105,-71.13220153485291,0.0,"-71.13220153485291,42.4002105"
220,50,Churchill Avenue,#329,Cambridge,MA,23,"50 Churchill Avenue,Cambridge,MA, USA","50, Churchill Avenue, North Cambridge, Cambridge, Middlesex County, Massachusetts, 02140, United States of America","(42.400573550000004, -71.13163973637504, 0.0)",42.400573550000004,-71.13163973637504,0.0,"-71.13163973637504,42.400573550000004"
221,81,Clifton Street,#15,Cambridge,MA,23,"81 Clifton Street,Cambridge,MA, USA","73;81, Clifton Street, North Cambridge, Cambridge, Middlesex County, Massachusetts, 02140, United States of America","(42.39584445, -71.13604072598531, 0.0)",42.39584445,-71.13604072598531,0.0,"-71.13604072598531,42.39584445"
222,81,Clifton Street,#14,Cambridge,MA,23,"81 Clifton Street,Cambridge,MA, USA","73;81, Clifton Street, North Cambridge, Cambridge, Middlesex County, Massachusetts, 02140, United States of America","(42.39584445, -71.13604072598531, 0.0)",42.39584445,-71.13604072598531,0.0,"-71.13604072598531,42.39584445"
223,25,Eighth Street,#43,Cambridge,MA,23,"25 Eighth Street,Cambridge,MA, USA","25, Eighth Street, East Cambridge, Cambridge, Middlesex County, Massachusetts, 02141, United States of America","(42.37077514285714, -71.08648571428571, 0.0)",42.37077514285714,-71.08648571428571,0.0,"-71.08648571428571,42.37077514285714"
224,25,Eighth Street,#40,Cambridge,MA,23,"25 Eighth Street,Cambridge,MA, USA","25, Eighth Street, East Cambridge, Cambridge, Middlesex County, Massachusetts, 02141, United States of America","(42.37077514285714, -71.08648571428571, 0.0)",42.37077514285714,-71.08648571428571,0.0,"-71.08648571428571,42.37077514285714"
225,25,Eighth Street,#42,Cambridge,MA,23,"25 Eighth Street,Cambridge,MA, USA","25, Eighth Street, East Cambridge, Cambridge, Middlesex County, Massachusetts, 02141, United States of America","(42.37077514285714, -71.08648571428571, 0.0)",42.37077514285714,-71.08648571428571,0.0,"-71.08648571428571,42.37077514285714"
226,25,Eighth Street,#87,Cambridge,MA,23,"25 Eighth Street,Cambridge,MA, USA","25, Eighth Street, East Cambridge, Cambridge, Middlesex County, Massachusetts, 02141, United States of America","(42.37077514285714, -71.08648571428571, 0.0)",42.37077514285714,-71.08648571428571,0.0,"-71.08648571428571,42.37077514285714"
227,260,elm street,,Cambridge,MA,23,"260 elm street,Cambridge,MA, USA","260, Elm Street, Inman Square, Cambridge, Middlesex County, Massachusetts, 02139, United States of America","(42.37242033848903, -71.09557523143354, 0.0)",42.37242033848903,-71.09557523143354,0.0,"-71.09557523143354,42.37242033848903"
228,150,Erie Street,#1013,Cambridge,MA,23,"150 Erie Street,Cambridge,MA, USA","L.B. Johnson Apartments, 150, Erie Street, Cambridgeport, Cambridge, Middlesex County, Massachusetts, 02139, United States of America","(42.35928535, -71.10688423653187, 0.0)",42.35928535,-71.10688423653187,0.0,"-71.10688423653187,42.35928535"
229,150,Erie Street,#319,Cambridge,MA,23,"150 Erie Street,Cambridge,MA, USA","L.B. Johnson Apartments, 150, Erie Street, Cambridgeport, Cambridge, Middlesex County, Massachusetts, 02139, United States of America","(42.35928535, -71.10688423653187, 0.0)",42.35928535,-71.10688423653187,0.0,"-71.10688423653187,42.35928535"
230,150,Erie Street,#709,Cambridge,MA,24,"150 Erie Street,Cambridge,MA, USA","L.B. Johnson Apartments, 150, Erie Street, Cambridgeport, Cambridge, Middlesex County, Massachusetts, 02139, United States of America","(42.35928535, -71.10688423653187, 0.0)",42.35928535,-71.10688423653187,0.0,"-71.10688423653187,42.35928535"
231,150,Erie Street,#510,Cambridge,MA,24,"150 Erie Street,Cambridge,MA, USA","L.B. Johnson Apartments, 150, Erie Street, Cambridgeport, Cambridge, Middlesex County, Massachusetts, 02139, United States of America","(42.35928535, -71.10688423653187, 0.0)",42.35928535,-71.10688423653187,0.0,"-71.10688423653187,42.35928535"
232,150,Erie Street,#209,Cambridge,MA,24,"150 Erie Street,Cambridge,MA, USA","L.B. Johnson Apartments, 150, Erie Street, Cambridgeport, Cambridge, Middlesex County, Massachusetts, 02139, United States of America","(42.35928535, -71.10688423653187, 0.0)",42.35928535,-71.10688423653187,0.0,"-71.10688423653187,42.35928535"
233,150,Erie Street,#207,Cambridge,MA,24,"150 Erie Street,Cambridge,MA, USA","L.B. Johnson Apartments, 150, Erie Street, Cambridgeport, Cambridge, Middlesex County, Massachusetts, 02139, United States of America","(42.35928535, -71.10688423653187, 0.0)",42.35928535,-71.10688423653187,0.0,"-71.10688423653187,42.35928535"
234,150,Erie Street,#607,Cambridge,MA,24,"150 Erie Street,Cambridge,MA, USA","L.B. Johnson Apartments, 150, Erie Street, Cambridgeport, Cambridge, Middlesex County, Massachusetts, 02139, United States of America","(42.35928535, -71.10688423653187, 0.0)",42.35928535,-71.10688423653187,0.0,"-71.10688423653187,42.35928535"
235,150,Erie Street,#522,Cambridge,MA,24,"150 Erie Street,Cambridge,MA, USA","L.B. Johnson Apartments, 150, Erie Street, Cambridgeport, Cambridge, Middlesex County, Massachusetts, 02139, United States of America","(42.35928535, -71.10688423653187, 0.0)",42.35928535,-71.10688423653187,0.0,"-71.10688423653187,42.35928535"
236,150,Erie Street,#1009,Cambridge,MA,24,"150 Erie Street,Cambridge,MA, USA","L.B. Johnson Apartments, 150, Erie Street, Cambridgeport, Cambridge, Middlesex County, Massachusetts, 02139, United States of America","(42.35928535, -71.10688423653187, 0.0)",42.35928535,-71.10688423653187,0.0,"-71.10688423653187,42.35928535"
237,150,Erie Street,#909,Cambridge,MA,24,"150 Erie Street,Cambridge,MA, USA","L.B. Johnson Apartments, 150, Erie Street, Cambridgeport, Cambridge, Middlesex County, Massachusetts, 02139, United States of America","(42.35928535, -71.10688423653187, 0.0)",42.35928535,-71.10688423653187,0.0,"-71.10688423653187,42.35928535"
238,150,Erie STreet,#310,Cambridge,MA,24,"150 Erie STreet,Cambridge,MA, USA","L.B. Johnson Apartments, 150, Erie Street, Cambridgeport, Cambridge, Middlesex County, Massachusetts, 02139, United States of America","(42.35928535, -71.10688423653187, 0.0)",42.35928535,-71.10688423653187,0.0,"-71.10688423653187,42.35928535"
239,150,Erie Street,#1004,Cambridge,MA,24,"150 Erie Street,Cambridge,MA, USA","L.B. Johnson Apartments, 150, Erie Street, Cambridgeport, Cambridge, Middlesex County, Massachusetts, 02139, United States of America","(42.35928535, -71.10688423653187, 0.0)",42.35928535,-71.10688423653187,0.0,"-71.10688423653187,42.35928535"
240,150,Erie Street,#1106,Cambridge,MA,25,"150 Erie Street,Cambridge,MA, USA","L.B. Johnson Apartments, 150, Erie Street, Cambridgeport, Cambridge, Middlesex County, Massachusetts, 02139, United States of America","(42.35928535, -71.10688423653187, 0.0)",42.35928535,-71.10688423653187,0.0,"-71.10688423653187,42.35928535"
241,150,Erie Street,#505,Cambridge,MA,25,"150 Erie Street,Cambridge,MA, USA","L.B. Johnson Apartments, 150, Erie Street, Cambridgeport, Cambridge, Middlesex County, Massachusetts, 02139, United States of America","(42.35928535, -71.10688423653187, 0.0)",42.35928535,-71.10688423653187,0.0,"-71.10688423653187,42.35928535"
242,150,Erie Street,#712,Cambridge,MA,25,"150 Erie Street,Cambridge,MA, USA","L.B. Johnson Apartments, 150, Erie Street, Cambridgeport, Cambridge, Middlesex County, Massachusetts, 02139, United States of America","(42.35928535, -71.10688423653187, 0.0)",42.35928535,-71.10688423653187,0.0,"-71.10688423653187,42.35928535"
243,150,Erie Street,#215,Cambridge,MA,25,"150 Erie Street,Cambridge,MA, USA","L.B. Johnson Apartments, 150, Erie Street, Cambridgeport, Cambridge, Middlesex County, Massachusetts, 02139, United States of America","(42.35928535, -71.10688423653187, 0.0)",42.35928535,-71.10688423653187,0.0,"-71.10688423653187,42.35928535"
244,150,Erie Street,#707,Cambridge,MA,25,"150 Erie Street,Cambridge,MA, USA","L.B. Johnson Apartments, 150, Erie Street, Cambridgeport, Cambridge, Middlesex County, Massachusetts, 02139, United States of America","(42.35928535, -71.10688423653187, 0.0)",42.35928535,-71.10688423653187,0.0,"-71.10688423653187,42.35928535"
245,150,Erie Street,#1208,Cambridge,MA,25,"150 Erie Street,Cambridge,MA, USA","L.B. Johnson Apartments, 150, Erie Street, Cambridgeport, Cambridge, Middlesex County, Massachusetts, 02139, United States of America","(42.35928535, -71.10688423653187, 0.0)",42.35928535,-71.10688423653187,0.0,"-71.10688423653187,42.35928535"
246,150,Erie Street,#1003,Cambridge,MA,25,"150 Erie Street,Cambridge,MA, USA","L.B. Johnson Apartments, 150, Erie Street, Cambridgeport, Cambridge, Middlesex County, Massachusetts, 02139, United States of America","(42.35928535, -71.10688423653187, 0.0)",42.35928535,-71.10688423653187,0.0,"-71.10688423653187,42.35928535"
247,150,Erie Street,#219,Cambridge,MA,25,"150 Erie Street,Cambridge,MA, USA","L.B. Johnson Apartments, 150, Erie Street, Cambridgeport, Cambridge, Middlesex County, Massachusetts, 02139, United States of America","(42.35928535, -71.10688423653187, 0.0)",42.35928535,-71.10688423653187,0.0,"-71.10688423653187,42.35928535"
248,150,Erie STreet,#322,Cambridge,MA,25,"150 Erie STreet,Cambridge,MA, USA","L.B. Johnson Apartments, 150, Erie Street, Cambridgeport, Cambridge, Middlesex County, Massachusetts, 02139, United States of America","(42.35928535, -71.10688423653187, 0.0)",42.35928535,-71.10688423653187,0.0,"-71.10688423653187,42.35928535"
249,150,Erie Street,#1101,Cambridge,MA,25,"150 Erie Street,Cambridge,MA, USA","L.B. Johnson Apartments, 150, Erie Street, Cambridgeport, Cambridge, Middlesex County, Massachusetts, 02139, United States of America","(42.35928535, -71.10688423653187, 0.0)",42.35928535,-71.10688423653187,0.0,"-71.10688423653187,42.35928535"
250,150,Erie STreet,#907,Cambridge,MA,26,"150 Erie STreet,Cambridge,MA, USA","L.B. Johnson Apartments, 150, Erie Street, Cambridgeport, Cambridge, Middlesex County, Massachusetts, 02139, United States of America","(42.35928535, -71.10688423653187, 0.0)",42.35928535,-71.10688423653187,0.0,"-71.10688423653187,42.35928535"
251,150,Erie Street,#113,Cambridge,MA,26,"150 Erie Street,Cambridge,MA, USA","L.B. Johnson Apartments, 150, Erie Street, Cambridgeport, Cambridge, Middlesex County, Massachusetts, 02139, United States of America","(42.35928535, -71.10688423653187, 0.0)",42.35928535,-71.10688423653187,0.0,"-71.10688423653187,42.35928535"
252,150,Erie Street,#211,Cambridge,MA,26,"150 Erie Street,Cambridge,MA, USA","L.B. Johnson Apartments, 150, Erie Street, Cambridgeport, Cambridge, Middlesex County, Massachusetts, 02139, United States of America","(42.35928535, -71.10688423653187, 0.0)",42.35928535,-71.10688423653187,0.0,"-71.10688423653187,42.35928535"
253,150,Erie Street,#906,Cambridge,MA,26,"150 Erie Street,Cambridge,MA, USA","L.B. Johnson Apartments, 150, Erie Street, Cambridgeport, Cambridge, Middlesex County, Massachusetts, 02139, United States of America","(42.35928535, -71.10688423653187, 0.0)",42.35928535,-71.10688423653187,0.0,"-71.10688423653187,42.35928535"
254,55,Essex Street,#701,Cambridge,MA,26,"55 Essex Street,Cambridge,MA, USA","55, Essex Street, Cambridgeport, Cambridge, Middlesex County, Massachusetts, 02139, United States of America","(42.36528130612245, -71.10271306122449, 0.0)",42.36528130612245,-71.10271306122449,0.0,"-71.10271306122449,42.36528130612245"
255,55,Essex Street,#606,Cambridge,MA,26,"55 Essex Street,Cambridge,MA, USA","55, Essex Street, Cambridgeport, Cambridge, Middlesex County, Massachusetts, 02139, United States of America","(42.36528130612245, -71.10271306122449, 0.0)",42.36528130612245,-71.10271306122449,0.0,"-71.10271306122449,42.36528130612245"
256,55,Essex Street,#710,Cambridge,MA,26,"55 Essex Street,Cambridge,MA, USA","55, Essex Street, Cambridgeport, Cambridge, Middlesex County, Massachusetts, 02139, United States of America","(42.36528130612245, -71.10271306122449, 0.0)",42.36528130612245,-71.10271306122449,0.0,"-71.10271306122449,42.36528130612245"
257,55,Essex Street,#305,Cambridge,MA,26,"55 Essex Street,Cambridge,MA, USA","55, Essex Street, Cambridgeport, Cambridge, Middlesex County, Massachusetts, 02139, United States of America","(42.36528130612245, -71.10271306122449, 0.0)",42.36528130612245,-71.10271306122449,0.0,"-71.10271306122449,42.36528130612245"
258,55,Essex Street,#304,Cambridge,MA,26,"55 Essex Street,Cambridge,MA, USA","55, Essex Street, Cambridgeport, Cambridge, Middlesex County, Massachusetts, 02139, United States of America","(42.36528130612245, -71.10271306122449, 0.0)",42.36528130612245,-71.10271306122449,0.0,"-71.10271306122449,42.36528130612245"
259,55,Essex Street,#707,Cambridge,MA,26,"55 Essex Street,Cambridge,MA, USA","55, Essex Street, Cambridgeport, Cambridge, Middlesex County, Massachusetts, 02139, United States of America","(42.36528130612245, -71.10271306122449, 0.0)",42.36528130612245,-71.10271306122449,0.0,"-71.10271306122449,42.36528130612245"
260,55,Essex Street,#506,Cambridge,MA,27,"55 Essex Street,Cambridge,MA, USA","55, Essex Street, Cambridgeport, Cambridge, Middlesex County, Massachusetts, 02139, United States of America","(42.36528130612245, -71.10271306122449, 0.0)",42.36528130612245,-71.10271306122449,0.0,"-71.10271306122449,42.36528130612245"
261,55,Essex Street,#807,Cambridge,MA,27,"55 Essex Street,Cambridge,MA, USA","55, Essex Street, Cambridgeport, Cambridge, Middlesex County, Massachusetts, 02139, United States of America","(42.36528130612245, -71.10271306122449, 0.0)",42.36528130612245,-71.10271306122449,0.0,"-71.10271306122449,42.36528130612245"
262,8,Fairmont Street,#6,Cambridge,MA,27,"8 Fairmont Street,Cambridge,MA, USA","8, Fairmont Street, Cambridgeport, Cambridge, Middlesex County, Massachusetts, 02139, United States of America","(42.3608574, -71.10971484356602, 0.0)",42.3608574,-71.10971484356602,0.0,"-71.10971484356602,42.3608574"
263,237,Franklin Street,#1206 (Manning),Cambridge,MA,27,"237 Franklin Street,Cambridge,MA, USA","237, Franklin Street, Cambridgeport, Cambridge, Middlesex County, Massachusetts, 02139, United States of America","(42.363991187609585, -71.10409226244363, 0.0)",42.363991187609585,-71.10409226244363,0.0,"-71.10409226244363,42.363991187609585"
264,237,Franklin Street,#1110,Cambridge,MA,27,"237 Franklin Street,Cambridge,MA, USA","237, Franklin Street, Cambridgeport, Cambridge, Middlesex County, Massachusetts, 02139, United States of America","(42.363991187609585, -71.10409226244363, 0.0)",42.363991187609585,-71.10409226244363,0.0,"-71.10409226244363,42.363991187609585"
265,237,Franklin Street,#1012,Cambridge,MA,27,"237 Franklin Street,Cambridge,MA, USA","237, Franklin Street, Cambridgeport, Cambridge, Middlesex County, Massachusetts, 02139, United States of America","(42.363991187609585, -71.10409226244363, 0.0)",42.363991187609585,-71.10409226244363,0.0,"-71.10409226244363,42.363991187609585"
266,237,Franklin Street,#705,Cambridge,MA,27,"237 Franklin Street,Cambridge,MA, USA","237, Franklin Street, Cambridgeport, Cambridge, Middlesex County, Massachusetts, 02139, United States of America","(42.363991187609585, -71.10409226244363, 0.0)",42.363991187609585,-71.10409226244363,0.0,"-71.10409226244363,42.363991187609585"
267,237,Franklin Street,#1906,Cambridge,MA,27,"237 Franklin Street,Cambridge,MA, USA","237, Franklin Street, Cambridgeport, Cambridge, Middlesex County, Massachusetts, 02139, United States of America","(42.363991187609585, -71.10409226244363, 0.0)",42.363991187609585,-71.10409226244363,0.0,"-71.10409226244363,42.363991187609585"
268,237,Franklin Street,#1909,Cambridge,MA,27,"237 Franklin Street,Cambridge,MA, USA","237, Franklin Street, Cambridgeport, Cambridge, Middlesex County, Massachusetts, 02139, United States of America","(42.363991187609585, -71.10409226244363, 0.0)",42.363991187609585,-71.10409226244363,0.0,"-71.10409226244363,42.363991187609585"
269,237,Franklin Street,#505,Cambridge,MA,27,"237 Franklin Street,Cambridge,MA, USA","237, Franklin Street, Cambridgeport, Cambridge, Middlesex County, Massachusetts, 02139, United States of America","(42.363991187609585, -71.10409226244363, 0.0)",42.363991187609585,-71.10409226244363,0.0,"-71.10409226244363,42.363991187609585"
270,237,Franklin Street,#412,Cambridge,MA,28,"237 Franklin Street,Cambridge,MA, USA","237, Franklin Street, Cambridgeport, Cambridge, Middlesex County, Massachusetts, 02139, United States of America","(42.363991187609585, -71.10409226244363, 0.0)",42.363991187609585,-71.10409226244363,0.0,"-71.10409226244363,42.363991187609585"
271,237,Franklin Street,#311,Cambridge,MA,28,"237 Franklin Street,Cambridge,MA, USA","237, Franklin Street, Cambridgeport, Cambridge, Middlesex County, Massachusetts, 02139, United States of America","(42.363991187609585, -71.10409226244363, 0.0)",42.363991187609585,-71.10409226244363,0.0,"-71.10409226244363,42.363991187609585"
272,237,Franklin Street,#1603,Cambridge,MA,28,"237 Franklin Street,Cambridge,MA, USA","237, Franklin Street, Cambridgeport, Cambridge, Middlesex County, Massachusetts, 02139, United States of America","(42.363991187609585, -71.10409226244363, 0.0)",42.363991187609585,-71.10409226244363,0.0,"-71.10409226244363,42.363991187609585"
273,237,Franklin Street,#1312,Cambridge,MA,28,"237 Franklin Street,Cambridge,MA, USA","237, Franklin Street, Cambridgeport, Cambridge, Middlesex County, Massachusetts, 02139, United States of America","(42.363991187609585, -71.10409226244363, 0.0)",42.363991187609585,-71.10409226244363,0.0,"-71.10409226244363,42.363991187609585"
274,237,Franklin Street,#1109,Cambridge,MA,28,"237 Franklin Street,Cambridge,MA, USA","237, Franklin Street, Cambridgeport, Cambridge, Middlesex County, Massachusetts, 02139, United States of America","(42.363991187609585, -71.10409226244363, 0.0)",42.363991187609585,-71.10409226244363,0.0,"-71.10409226244363,42.363991187609585"
275,237,Franklin Street,801,Cambridge,MA,28,"237 Franklin Street,Cambridge,MA, USA","237, Franklin Street, Cambridgeport, Cambridge, Middlesex County, Massachusetts, 02139, United States of America","(42.363991187609585, -71.10409226244363, 0.0)",42.363991187609585,-71.10409226244363,0.0,"-71.10409226244363,42.363991187609585"
276,237,Franklin Street,#1104,Cambridge,MA,28,"237 Franklin Street,Cambridge,MA, USA","237, Franklin Street, Cambridgeport, Cambridge, Middlesex County, Massachusetts, 02139, United States of America","(42.363991187609585, -71.10409226244363, 0.0)",42.363991187609585,-71.10409226244363,0.0,"-71.10409226244363,42.363991187609585"
277,237,Franklin Street,#1206,Cambridge,MA,28,"237 Franklin Street,Cambridge,MA, USA","237, Franklin Street, Cambridgeport, Cambridge, Middlesex County, Massachusetts, 02139, United States of America","(42.363991187609585, -71.10409226244363, 0.0)",42.363991187609585,-71.10409226244363,0.0,"-71.10409226244363,42.363991187609585"
278,237,Franklin Street,810,Cambridge,MA,28,"237 Franklin Street,Cambridge,MA, USA","237, Franklin Street, Cambridgeport, Cambridge, Middlesex County, Massachusetts, 02139, United States of America","(42.363991187609585, -71.10409226244363, 0.0)",42.363991187609585,-71.10409226244363,0.0,"-71.10409226244363,42.363991187609585"
279,253,Garden St,10,Cambridge,MA,28,"253 Garden St,Cambridge,MA, USA","253, Garden Street, Huron Village, Cambridge, Middlesex County, Massachusetts, 02140, United States of America","(42.386714600000005, -71.1358012195281, 0.0)",42.386714600000005,-71.1358012195281,0.0,"-71.1358012195281,42.386714600000005"
280,5,Harrington terrace,5A,Cambridge,MA,29,"5 Harrington terrace,Cambridge,MA, USA","5, Harrington Terrace, Inman Square, Cambridge, Middlesex County, Massachusetts, 02141, United States of America","(42.372218, -71.094141, 0.0)",42.372218,-71.094141,0.0,"-71.094141,42.372218"
281,5,Harrington terrace,5B,Cambridge,MA,29,"5 Harrington terrace,Cambridge,MA, USA","5, Harrington Terrace, Inman Square, Cambridge, Middlesex County, Massachusetts, 02141, United States of America","(42.372218, -71.094141, 0.0)",42.372218,-71.094141,0.0,"-71.094141,42.372218"
282,273,Harvard St.,Apt 12,Cambridge,MA,29,"273 Harvard St.,Cambridge,MA, USA","273, Harvard Street, Inman Square, Cambridge, Middlesex County, Massachusetts, 02139, United States of America","(42.36925805, -71.10290745, 0.0)",42.36925805,-71.10290745,0.0,"-71.10290745,42.36925805"
283,15,Lambert St,1318,Cambridge,MA,29,"15 Lambert St,Cambridge,MA, USA","15, Lambert Street, East Cambridge, Cambridge, Middlesex County, Massachusetts, 02141, United States of America","(42.37221907283049, -71.0870535510116, 0.0)",42.37221907283049,-71.0870535510116,0.0,"-71.0870535510116,42.37221907283049"
284,15,Lambert Street,#716,Cambridge,MA,29,"15 Lambert Street,Cambridge,MA, USA","15, Lambert Street, East Cambridge, Cambridge, Middlesex County, Massachusetts, 02141, United States of America","(42.37221907283049, -71.0870535510116, 0.0)",42.37221907283049,-71.0870535510116,0.0,"-71.0870535510116,42.37221907283049"
285,15,Lambert Street,#717,Cambridge,MA,29,"15 Lambert Street,Cambridge,MA, USA","15, Lambert Street, East Cambridge, Cambridge, Middlesex County, Massachusetts, 02141, United States of America","(42.37221907283049, -71.0870535510116, 0.0)",42.37221907283049,-71.0870535510116,0.0,"-71.0870535510116,42.37221907283049"
286,15,Lambert Street,#1909,Cambridge,MA,29,"15 Lambert Street,Cambridge,MA, USA","15, Lambert Street, East Cambridge, Cambridge, Middlesex County, Massachusetts, 02141, United States of America","(42.37221907283049, -71.0870535510116, 0.0)",42.37221907283049,-71.0870535510116,0.0,"-71.0870535510116,42.37221907283049"
287,15,Lambert Street,#1807,Cambridge,MA,29,"15 Lambert Street,Cambridge,MA, USA","15, Lambert Street, East Cambridge, Cambridge, Middlesex County, Massachusetts, 02141, United States of America","(42.37221907283049, -71.0870535510116, 0.0)",42.37221907283049,-71.0870535510116,0.0,"-71.0870535510116,42.37221907283049"
288,15,Lambert Street,#702,Cambridge,MA,29,"15 Lambert Street,Cambridge,MA, USA","15, Lambert Street, East Cambridge, Cambridge, Middlesex County, Massachusetts, 02141, United States of America","(42.37221907283049, -71.0870535510116, 0.0)",42.37221907283049,-71.0870535510116,0.0,"-71.0870535510116,42.37221907283049"
289,15,Lambert Street,#711,Cambridge,MA,29,"15 Lambert Street,Cambridge,MA, USA","15, Lambert Street, East Cambridge, Cambridge, Middlesex County, Massachusetts, 02141, United States of America","(42.37221907283049, -71.0870535510116, 0.0)",42.37221907283049,-71.0870535510116,0.0,"-71.0870535510116,42.37221907283049"
290,15,Lambert Street,#1804,Cambridge,MA,29,"15 Lambert Street,Cambridge,MA, USA","15, Lambert Street, East Cambridge, Cambridge, Middlesex County, Massachusetts, 02141, United States of America","(42.37221907283049, -71.0870535510116, 0.0)",42.37221907283049,-71.0870535510116,0.0,"-71.0870535510116,42.37221907283049"
291,15,Lambert Street,#215,Cambridge,MA,30,"15 Lambert Street,Cambridge,MA, USA","15, Lambert Street, East Cambridge, Cambridge, Middlesex County, Massachusetts, 02141, United States of America","(42.37221907283049, -71.0870535510116, 0.0)",42.37221907283049,-71.0870535510116,0.0,"-71.0870535510116,42.37221907283049"
292,15,Lambert Street,#715,Cambridge,MA,30,"15 Lambert Street,Cambridge,MA, USA","15, Lambert Street, East Cambridge, Cambridge, Middlesex County, Massachusetts, 02141, United States of America","(42.37221907283049, -71.0870535510116, 0.0)",42.37221907283049,-71.0870535510116,0.0,"-71.0870535510116,42.37221907283049"
293,15,Lambert Street,#205,Cambridge,MA,30,"15 Lambert Street,Cambridge,MA, USA","15, Lambert Street, East Cambridge, Cambridge, Middlesex County, Massachusetts, 02141, United States of America","(42.37221907283049, -71.0870535510116, 0.0)",42.37221907283049,-71.0870535510116,0.0,"-71.0870535510116,42.37221907283049"
294,15,Lambert Street,#1908,Cambridge,MA,30,"15 Lambert Street,Cambridge,MA, USA","15, Lambert Street, East Cambridge, Cambridge, Middlesex County, Massachusetts, 02141, United States of America","(42.37221907283049, -71.0870535510116, 0.0)",42.37221907283049,-71.0870535510116,0.0,"-71.0870535510116,42.37221907283049"
295,15,Lambert Street,#801,Cambridge,MA,30,"15 Lambert Street,Cambridge,MA, USA","15, Lambert Street, East Cambridge, Cambridge, Middlesex County, Massachusetts, 02141, United States of America","(42.37221907283049, -71.0870535510116, 0.0)",42.37221907283049,-71.0870535510116,0.0,"-71.0870535510116,42.37221907283049"
296,15,Lambert Street,#415,Cambridge,MA,30,"15 Lambert Street,Cambridge,MA, USA","15, Lambert Street, East Cambridge, Cambridge, Middlesex County, Massachusetts, 02141, United States of America","(42.37221907283049, -71.0870535510116, 0.0)",42.37221907283049,-71.0870535510116,0.0,"-71.0870535510116,42.37221907283049"
297,15,Lambert Street,#403,Cambridge,MA,30,"15 Lambert Street,Cambridge,MA, USA","15, Lambert Street, East Cambridge, Cambridge, Middlesex County, Massachusetts, 02141, United States of America","(42.37221907283049, -71.0870535510116, 0.0)",42.37221907283049,-71.0870535510116,0.0,"-71.0870535510116,42.37221907283049"
298,15,Lambert Street,#304,Cambridge,MA,30,"15 Lambert Street,Cambridge,MA, USA","15, Lambert Street, East Cambridge, Cambridge, Middlesex County, Massachusetts, 02141, United States of America","(42.37221907283049, -71.0870535510116, 0.0)",42.37221907283049,-71.0870535510116,0.0,"-71.0870535510116,42.37221907283049"
299,15,Lambert Street,#1017,Cambridge,MA,30,"15 Lambert Street,Cambridge,MA, USA","15, Lambert Street, East Cambridge, Cambridge, Middlesex County, Massachusetts, 02141, United States of America","(42.37221907283049, -71.0870535510116, 0.0)",42.37221907283049,-71.0870535510116,0.0,"-71.0870535510116,42.37221907283049"
300,15,Lambert Street,#313,Cambridge,MA,30,"15 Lambert Street,Cambridge,MA, USA","15, Lambert Street, East Cambridge, Cambridge, Middlesex County, Massachusetts, 02141, United States of America","(42.37221907283049, -71.0870535510116, 0.0)",42.37221907283049,-71.0870535510116,0.0,"-71.0870535510116,42.37221907283049"
301,15,Lambert Street,#918,Cambridge,MA,30,"15 Lambert Street,Cambridge,MA, USA","15, Lambert Street, East Cambridge, Cambridge, Middlesex County, Massachusetts, 02141, United States of America","(42.37221907283049, -71.0870535510116, 0.0)",42.37221907283049,-71.0870535510116,0.0,"-71.0870535510116,42.37221907283049"
302,15,Lambert Street,#511,Cambridge,MA,31,"15 Lambert Street,Cambridge,MA, USA","15, Lambert Street, East Cambridge, Cambridge, Middlesex County, Massachusetts, 02141, United States of America","(42.37221907283049, -71.0870535510116, 0.0)",42.37221907283049,-71.0870535510116,0.0,"-71.0870535510116,42.37221907283049"
303,15,Lambert Street,#904,Cambridge,MA,31,"15 Lambert Street,Cambridge,MA, USA","15, Lambert Street, East Cambridge, Cambridge, Middlesex County, Massachusetts, 02141, United States of America","(42.37221907283049, -71.0870535510116, 0.0)",42.37221907283049,-71.0870535510116,0.0,"-71.0870535510116,42.37221907283049"
304,15,Lambert Street,#1305,Cambridge,MA,31,"15 Lambert Street,Cambridge,MA, USA","15, Lambert Street, East Cambridge, Cambridge, Middlesex County, Massachusetts, 02141, United States of America","(42.37221907283049, -71.0870535510116, 0.0)",42.37221907283049,-71.0870535510116,0.0,"-71.0870535510116,42.37221907283049"
305,15,Lambert Street,#912,Cambridge,MA,31,"15 Lambert Street,Cambridge,MA, USA","15, Lambert Street, East Cambridge, Cambridge, Middlesex County, Massachusetts, 02141, United States of America","(42.37221907283049, -71.0870535510116, 0.0)",42.37221907283049,-71.0870535510116,0.0,"-71.0870535510116,42.37221907283049"
306,15,Lambert Street,#513,Cambridge,MA,31,"15 Lambert Street,Cambridge,MA, USA","15, Lambert Street, East Cambridge, Cambridge, Middlesex County, Massachusetts, 02141, United States of America","(42.37221907283049, -71.0870535510116, 0.0)",42.37221907283049,-71.0870535510116,0.0,"-71.0870535510116,42.37221907283049"
307,15,Lambert Street,#1007,Cambridge,MA,31,"15 Lambert Street,Cambridge,MA, USA","15, Lambert Street, East Cambridge, Cambridge, Middlesex County, Massachusetts, 02141, United States of America","(42.37221907283049, -71.0870535510116, 0.0)",42.37221907283049,-71.0870535510116,0.0,"-71.0870535510116,42.37221907283049"
308,15,Lambert Street,#1218,Cambridge,MA,31,"15 Lambert Street,Cambridge,MA, USA","15, Lambert Street, East Cambridge, Cambridge, Middlesex County, Massachusetts, 02141, United States of America","(42.37221907283049, -71.0870535510116, 0.0)",42.37221907283049,-71.0870535510116,0.0,"-71.0870535510116,42.37221907283049"
309,8,Lancaster Street,#7,Cambridge,MA,31,"8 Lancaster Street,Cambridge,MA, USA","6;8;10, Lancaster Street, Porter Square, Cambridge, Middlesex County, Massachusetts, 02140-2215, United States of America","(42.38534935, -71.11997693271935, 0.0)",42.38534935,-71.11997693271935,0.0,"-71.11997693271935,42.38534935"
310,100,Landsdowne st,812,Cambridge,MA,31,"100 Landsdowne st,Cambridge,MA, USA","100 Landsdowne, 100, Landsdowne Street, University Park, Cambridge, Middlesex County, Massachusetts, 02139, United States of America","(42.35984355, -71.10094598761387, 0.0)",42.35984355,-71.10094598761387,0.0,"-71.10094598761387,42.35984355"
311,2,Leighton St,427,Cambridge,MA,31,"2 Leighton St,Cambridge,MA, USA","2, Leighton Street, East Cambridge, Cambridge, Middlesex County, Massachusetts, 02141, United States of America","(42.37033102040816, -71.07341310204082, 0.0)",42.37033102040816,-71.07341310204082,0.0,"-71.07341310204082,42.37033102040816"
312,2,Leighton St,307,Cambridge,MA,31,"2 Leighton St,Cambridge,MA, USA","2, Leighton Street, East Cambridge, Cambridge, Middlesex County, Massachusetts, 02141, United States of America","(42.37033102040816, -71.07341310204082, 0.0)",42.37033102040816,-71.07341310204082,0.0,"-71.07341310204082,42.37033102040816"
313,1,Leighton Street,1115,Cambridge,MA,32,"1 Leighton Street,Cambridge,MA, USA","Archstone Northpoint, 1, Leighton Street, East Cambridge, Cambridge, Middlesex County, Massachusetts, 02141, United States of America","(42.36993075, -71.07288299027634, 0.0)",42.36993075,-71.07288299027634,0.0,"-71.07288299027634,42.36993075"
314,929,Massachusetts Ave,6F,Cambridge,MA,32,"929 Massachusetts Ave,Cambridge,MA, USA","929, Massachusetts Avenue, Cambridgeport, Cambridge, Middlesex County, Massachusetts, 02139, United States of America","(42.3690065, -71.10892507244762, 0.0)",42.3690065,-71.10892507244762,0.0,"-71.10892507244762,42.3690065"
315,820,Massachusetts Ave,434,Cambridge,MA,32,"820 Massachusetts Ave,Cambridge,MA, USA","YMCA, 820, Massachusetts Avenue, Cambridgeport, Cambridge, Middlesex County, Massachusetts, 02139, United States of America","(42.3669109, -71.1065281, 0.0)",42.3669109,-71.1065281,0.0,"-71.1065281,42.3669109"
316,1010,Memorial Dr.,4G,Cambridge,MA,32,"1010 Memorial Dr.,Cambridge,MA, USA","1010, Memorial Drive, Old Cambridge, Cambridge, Middlesex County, Massachusetts, 02138-2903, United States of America","(42.37438275, -71.13249510224313, 0.0)",42.37438275,-71.13249510224313,0.0,"-71.13249510224313,42.37438275"
317,2,Mt Auburn,608,Cambridge,MA,32,"2 Mt Auburn,Cambridge,MA, USA","Mount Auburn, Cambridge, Massachusetts, 02478-3432, United States of America","(42.3750967, -71.1494979, 0.0)",42.3750967,-71.1494979,0.0,"-71.1494979,42.3750967"
318,2,Mt Auburn St,207,Cambridge,MA,32,"2 Mt Auburn St,Cambridge,MA, USA","2, Mount Auburn Street, Cambridgeport, Cambridge, Middlesex County, Massachusetts, 02138-3824, United States of America","(42.36981084999999, -71.11359355818165, 0.0)",42.36981084999999,-71.11359355818165,0.0,"-71.11359355818165,42.36981084999999"
319,116,Norfolk Street,#305,Cambridge,MA,32,"116 Norfolk Street,Cambridge,MA, USA","116, Norfolk Street, Inman Square, Cambridge, Middlesex County, Massachusetts, 02139, United States of America","(42.366748, -71.10003298996187, 0.0)",42.366748,-71.10003298996187,0.0,"-71.10003298996187,42.366748"
320,116,Norfolk Street,#205,Cambridge,MA,32,"116 Norfolk Street,Cambridge,MA, USA","116, Norfolk Street, Inman Square, Cambridge, Middlesex County, Massachusetts, 02139, United States of America","(42.366748, -71.10003298996187, 0.0)",42.366748,-71.10003298996187,0.0,"-71.10003298996187,42.366748"
321,116,Norfolk Street,#401,Cambridge,MA,32,"116 Norfolk Street,Cambridge,MA, USA","116, Norfolk Street, Inman Square, Cambridge, Middlesex County, Massachusetts, 02139, United States of America","(42.366748, -71.10003298996187, 0.0)",42.366748,-71.10003298996187,0.0,"-71.10003298996187,42.366748"
322,116,Norfolk Street,#404,Cambridge,MA,32,"116 Norfolk Street,Cambridge,MA, USA","116, Norfolk Street, Inman Square, Cambridge, Middlesex County, Massachusetts, 02139, United States of America","(42.366748, -71.10003298996187, 0.0)",42.366748,-71.10003298996187,0.0,"-71.10003298996187,42.366748"
323,116,Norfolk Street,#301,Cambridge,MA,32,"116 Norfolk Street,Cambridge,MA, USA","116, Norfolk Street, Inman Square, Cambridge, Middlesex County, Massachusetts, 02139, United States of America","(42.366748, -71.10003298996187, 0.0)",42.366748,-71.10003298996187,0.0,"-71.10003298996187,42.366748"
324,116,Norfolk Street,#304,Cambridge,MA,33,"116 Norfolk Street,Cambridge,MA, USA","116, Norfolk Street, Inman Square, Cambridge, Middlesex County, Massachusetts, 02139, United States of America","(42.366748, -71.10003298996187, 0.0)",42.366748,-71.10003298996187,0.0,"-71.10003298996187,42.366748"
325,116,Norfolk Street,#409,Cambridge,MA,33,"116 Norfolk Street,Cambridge,MA, USA","116, Norfolk Street, Inman Square, Cambridge, Middlesex County, Massachusetts, 02139, United States of America","(42.366748, -71.10003298996187, 0.0)",42.366748,-71.10003298996187,0.0,"-71.10003298996187,42.366748"
326,116,Norfolk Street,#312,Cambridge,MA,33,"116 Norfolk Street,Cambridge,MA, USA","116, Norfolk Street, Inman Square, Cambridge, Middlesex County, Massachusetts, 02139, United States of America","(42.366748, -71.10003298996187, 0.0)",42.366748,-71.10003298996187,0.0,"-71.10003298996187,42.366748"
327,116,Norfolk Street,#210,Cambridge,MA,33,"116 Norfolk Street,Cambridge,MA, USA","116, Norfolk Street, Inman Square, Cambridge, Middlesex County, Massachusetts, 02139, United States of America","(42.366748, -71.10003298996187, 0.0)",42.366748,-71.10003298996187,0.0,"-71.10003298996187,42.366748"
328,116,Norfolk Street,#G-6,Cambridge,MA,33,"116 Norfolk Street,Cambridge,MA, USA","116, Norfolk Street, Inman Square, Cambridge, Middlesex County, Massachusetts, 02139, United States of America","(42.366748, -71.10003298996187, 0.0)",42.366748,-71.10003298996187,0.0,"-71.10003298996187,42.366748"
329,116,Norfolk Street,#310,Cambridge,MA,33,"116 Norfolk Street,Cambridge,MA, USA","116, Norfolk Street, Inman Square, Cambridge, Middlesex County, Massachusetts, 02139, United States of America","(42.366748, -71.10003298996187, 0.0)",42.366748,-71.10003298996187,0.0,"-71.10003298996187,42.366748"
330,116,Norfolk Street,#211,Cambridge,MA,33,"116 Norfolk Street,Cambridge,MA, USA","116, Norfolk Street, Inman Square, Cambridge, Middlesex County, Massachusetts, 02139, United States of America","(42.366748, -71.10003298996187, 0.0)",42.366748,-71.10003298996187,0.0,"-71.10003298996187,42.366748"
331,116,Norfolk Street,#308,Cambridge,MA,33,"116 Norfolk Street,Cambridge,MA, USA","116, Norfolk Street, Inman Square, Cambridge, Middlesex County, Massachusetts, 02139, United States of America","(42.366748, -71.10003298996187, 0.0)",42.366748,-71.10003298996187,0.0,"-71.10003298996187,42.366748"
332,116,Norfolk Street,#203,Cambridge,MA,33,"116 Norfolk Street,Cambridge,MA, USA","116, Norfolk Street, Inman Square, Cambridge, Middlesex County, Massachusetts, 02139, United States of America","(42.366748, -71.10003298996187, 0.0)",42.366748,-71.10003298996187,0.0,"-71.10003298996187,42.366748"
333,86,Otis Street,#43B,Cambridge,MA,33,"86 Otis Street,Cambridge,MA, USA","86, Otis Street, East Cambridge, Cambridge, Middlesex County, Massachusetts, 02142, United States of America","(42.37038735, -71.08196602829751, 0.0)",42.37038735,-71.08196602829751,0.0,"-71.08196602829751,42.37038735"
334,86,Otis Street,38,Cambridge,MA,33,"86 Otis Street,Cambridge,MA, USA","86, Otis Street, East Cambridge, Cambridge, Middlesex County, Massachusetts, 02142, United States of America","(42.37038735, -71.08196602829751, 0.0)",42.37038735,-71.08196602829751,0.0,"-71.08196602829751,42.37038735"
335,402,Rindge Ave.,6-H,Cambridge,MA,34,"402 Rindge Ave.,Cambridge,MA, USA","402, Rindge Avenue, North Cambridge, Cambridge, Middlesex County, Massachusetts, 02474-8735, United States of America","(42.393091, -71.13991555000001, 0.0)",42.393091,-71.13991555000001,0.0,"-71.13991555000001,42.393091"
336,14,Roosevelt Towers,#708W,Cambridge,MA,34,"14 Roosevelt Towers,Cambridge,MA, USA","Roosevelt Towers, Cambridge, Middlesex County, Massachusetts, United States of America","(42.373664500000004, -71.09226424422903, 0.0)",42.373664500000004,-71.09226424422903,0.0,"-71.09226424422903,42.373664500000004"
337,14,Roosevelt Towers,#510W,Cambridge,MA,34,"14 Roosevelt Towers,Cambridge,MA, USA","Roosevelt Towers, Cambridge, Middlesex County, Massachusetts, United States of America","(42.373664500000004, -71.09226424422903, 0.0)",42.373664500000004,-71.09226424422903,0.0,"-71.09226424422903,42.373664500000004"
338,14,Roosevelt Towers,405E,Cambridge,MA,34,"14 Roosevelt Towers,Cambridge,MA, USA","Roosevelt Towers, Cambridge, Middlesex County, Massachusetts, United States of America","(42.373664500000004, -71.09226424422903, 0.0)",42.373664500000004,-71.09226424422903,0.0,"-71.09226424422903,42.373664500000004"
339,58,spring st,,Cambridge,MA,34,"58 spring st,Cambridge,MA, USA","58, Spring Street, East Cambridge, Cambridge, Middlesex County, Massachusetts, 02141, United States of America","(42.368937599999995, -71.0807582, 0.0)",42.368937599999995,-71.0807582,0.0,"-71.0807582,42.368937599999995"
340,7,temple st,401,Cambridge,MA,34,"7 temple st,Cambridge,MA, USA","YWCA, 7, Temple Street, Cambridgeport, Cambridge, Middlesex County, Massachusetts, 02139, United States of America","(42.3668113, -71.10430903799411, 0.0)",42.3668113,-71.10430903799411,0.0,"-71.10430903799411,42.3668113"
341,5,Temple St,103,Cambridge,MA,34,"5 Temple St,Cambridge,MA, USA","5, Temple Street, Cambridgeport, Cambridge, Middlesex County, Massachusetts, 02139, United States of America","(42.36615793537862, -71.1046406447828, 0.0)",42.36615793537862,-71.1046406447828,0.0,"-71.1046406447828,42.36615793537862"
342,21,Valentine St,#2,Cambridge,MA,34,"21 Valentine St,Cambridge,MA, USA","21, Valentine Street, Cambridgeport, Cambridge, Middlesex County, Massachusetts, 02139, United States of America","(42.360617950000005, -71.10608205083668, 0.0)",42.360617950000005,-71.10608205083668,0.0,"-71.10608205083668,42.360617950000005"
343,20,Ware St,#24,Cambridge,MA,34,"20 Ware St,Cambridge,MA, USA","18;20, Ware Street, Inman Square, Cambridge, Middlesex County, Massachusetts, 02138-3824, United States of America","(42.37347325, -71.11221237459287, 0.0)",42.37347325,-71.11221237459287,0.0,"-71.11221237459287,42.37347325"
344,200,Willow Street,,Cambridge,MA,34,"200 Willow Street,Cambridge,MA, USA","190;192;194;196;198;200, Willow Street, East Cambridge, Cambridge, Middlesex County, Massachusetts, 02142, United States of America","(42.37385005, -71.09167282708853, 0.0)",42.37385005,-71.09167282708853,0.0,"-71.09167282708853,42.37385005"
